{
 "type": "FeatureCollection",
 "name": "Lambeth app-paid car parks",
 "features": [
  {
   "type": "Feature",
   "geometry": {
    "type": "Point",
    "coordinates": [
     -0.11106,
     51.50625
    ]
   },
   "properties": {
    "code": "32106",
    "app": "ringgo",
    "name": "Cornwall Road car park",
    "operator": "APCOA / ParkBee",
    "area": "Waterloo",
    "max_stay": "1 day",
    "price": "See ParkBee for prices",
    "note": "Underground car park. APCOA terms apply.",
    "info_url": "https://parkbee.com/en/garage-details/32106",
    "kind": "car park",
    "source": "https://myringgo.co.uk/parkinglocator",
    "checked": "2026-09-29"
   }
  },
  {
   "type": "Feature",
   "geometry": {
    "type": "Point",
    "coordinates": [
     -0.11428,
     51.50631
    ]
   },
   "properties": {
    "code": "82368",
    "app": "ringgo",
    "name": "National Theatre car park",
    "operator": "National Theatre",
    "area": "South Bank",
    "max_stay": "31 days",
    "price": "Mon-Sat \u00a37.50 up to 2 h, \u00a312 4 h, \u00a318 8 h, \u00a328 24 h; \u00a310 after 17:00, Sundays and bank holidays",
    "note": "Free for Blue Badge holders.",
    "info_url": "",
    "kind": "car park",
    "source": "https://myringgo.co.uk/parkinglocator",
    "checked": "2026-09-29"
   }
  },
  {
   "type": "Feature",
   "geometry": {
    "type": "Point",
    "coordinates": [
     -0.11017,
     51.49883
    ]
   },
   "properties": {
    "code": "38921",
    "app": "ringgo",
    "name": "Pearman Street car park",
    "operator": "ParkBee",
    "area": "Waterloo",
    "max_stay": "1 day",
    "price": "See ParkBee for prices",
    "note": "Park in bays 1-5 only. Enter the right number plate.",
    "info_url": "https://parkbee.com/en/garage-details/38921",
    "kind": "car park",
    "source": "https://myringgo.co.uk/parkinglocator",
    "checked": "2026-09-29"
   }
  },
  {
   "type": "Feature",
   "geometry": {
    "type": "Point",
    "coordinates": [
     -0.10474,
     51.49095
    ]
   },
   "properties": {
    "code": "18839",
    "app": "ringgo",
    "name": "Kennington Lane car park",
    "operator": "ParkBee",
    "area": "Kennington",
    "max_stay": "1 day",
    "price": "See ParkBee for prices",
    "note": "Park in the 6 marked bays only.",
    "info_url": "https://parkbee.com/en/garage-details/18839",
    "kind": "car park",
    "source": "https://myringgo.co.uk/parkinglocator",
    "checked": "2026-09-29"
   }
  },
  {
   "type": "Feature",
   "geometry": {
    "type": "Point",
    "coordinates": [
     -0.12001,
     51.48138
    ]
   },
   "properties": {
    "code": "18830",
    "app": "ringgo",
    "name": "Fentiman Road car park",
    "operator": "ParkBee",
    "area": "Vauxhall",
    "max_stay": "1 day",
    "price": "See ParkBee for prices",
    "note": "Open the gates yourself. Gates lock at 19:00: collect your car before then.",
    "info_url": "https://parkbee.com/en/garage-details/18830",
    "kind": "car park",
    "source": "https://myringgo.co.uk/parkinglocator",
    "checked": "2026-09-29"
   }
  },
  {
   "type": "Feature",
   "geometry": {
    "type": "Point",
    "coordinates": [
     -0.11079,
     51.47974
    ]
   },
   "properties": {
    "code": "39079",
    "app": "ringgo",
    "name": "Kennington Park car park",
    "operator": "ParkBee",
    "area": "Kennington",
    "max_stay": "1 day",
    "price": "See ParkBee for prices",
    "note": "",
    "info_url": "https://parkbee.com/en/garage-details/39079",
    "kind": "car park",
    "source": "https://myringgo.co.uk/parkinglocator",
    "checked": "2026-09-29"
   }
  },
  {
   "type": "Feature",
   "geometry": {
    "type": "Point",
    "coordinates": [
     -0.11741,
     51.46396
    ]
   },
   "properties": {
    "code": "38925",
    "app": "ringgo",
    "name": "Ferndale Road car park",
    "operator": "ParkBee",
    "area": "Brixton",
    "max_stay": "1 day",
    "price": "See ParkBee for prices",
    "note": "Enforced on site. Enter the right number plate.",
    "info_url": "https://parkbee.com/en/garage-details/38925",
    "kind": "car park",
    "source": "https://myringgo.co.uk/parkinglocator",
    "checked": "2026-09-29"
   }
  },
  {
   "type": "Feature",
   "geometry": {
    "type": "Point",
    "coordinates": [
     -0.12903,
     51.41941
    ]
   },
   "properties": {
    "code": "828281",
    "app": "ringgo",
    "name": "Sainsbury's Streatham Common car park",
    "operator": "Sainsbury's",
    "area": "Streatham",
    "max_stay": "31 days",
    "price": "\u00a34.40 a day",
    "note": "Park well away from the store entrance. Check opening times with the store.",
    "info_url": "",
    "kind": "car park",
    "source": "https://myringgo.co.uk/parkinglocator",
    "checked": "2026-09-29"
   }
  }
 ]
}