{
 "type": "FeatureCollection",
 "name": "Lambeth controlled parking zones",
 "features": [
  {
   "type": "Feature",
   "geometry": {
    "type": "Polygon",
    "coordinates": [
     [
      [
       -0.113012,
       51.473636
      ],
      [
       -0.116389,
       51.473193
      ],
      [
       -0.116741,
       51.473436
      ],
      [
       -0.118193,
       51.474188
      ],
      [
       -0.119818,
       51.474968
      ],
      [
       -0.117573,
       51.477049
      ],
      [
       -0.119143,
       51.477637
      ],
      [
       -0.119059,
       51.477736
      ],
      [
       -0.120576,
       51.478323
      ],
      [
       -0.119984,
       51.479146
      ],
      [
       -0.121163,
       51.479589
      ],
      [
       -0.121761,
       51.479159
      ],
      [
       -0.123695,
       51.479241
      ],
      [
       -0.124318,
       51.480064
      ],
      [
       -0.124725,
       51.481072
      ],
      [
       -0.124588,
       51.481766
      ],
      [
       -0.124234,
       51.482511
      ],
      [
       -0.127228,
       51.483196
      ],
      [
       -0.127547,
       51.482007
      ],
      [
       -0.129908,
       51.481248
      ],
      [
       -0.129994,
       51.48113
      ],
      [
       -0.129948,
       51.481033
      ],
      [
       -0.13018,
       51.480665
      ],
      [
       -0.130326,
       51.48059
      ],
      [
       -0.130566,
       51.480169
      ],
      [
       -0.130652,
       51.480193
      ],
      [
       -0.130941,
       51.479777
      ],
      [
       -0.131438,
       51.479353
      ],
      [
       -0.13197,
       51.478441
      ],
      [
       -0.132044,
       51.478462
      ],
      [
       -0.133504,
       51.476434
      ],
      [
       -0.133813,
       51.475987
      ],
      [
       -0.13388,
       51.475721
      ],
      [
       -0.134044,
       51.475553
      ],
      [
       -0.134064,
       51.47531
      ],
      [
       -0.13448,
       51.474875
      ],
      [
       -0.13469,
       51.474957
      ],
      [
       -0.134962,
       51.474713
      ],
      [
       -0.134848,
       51.474657
      ],
      [
       -0.135221,
       51.474293
      ],
      [
       -0.134475,
       51.474027
      ],
      [
       -0.134488,
       51.473518
      ],
      [
       -0.134556,
       51.473408
      ],
      [
       -0.134724,
       51.473344
      ],
      [
       -0.135238,
       51.472937
      ],
      [
       -0.135771,
       51.472703
      ],
      [
       -0.136265,
       51.472717
      ],
      [
       -0.136873,
       51.473069
      ],
      [
       -0.138069,
       51.472084
      ],
      [
       -0.138581,
       51.471834
      ],
      [
       -0.138736,
       51.471956
      ],
      [
       -0.139594,
       51.47173
      ],
      [
       -0.13938,
       51.471487
      ],
      [
       -0.139706,
       51.471365
      ],
      [
       -0.138685,
       51.470395
      ],
      [
       -0.137322,
       51.47095
      ],
      [
       -0.135948,
       51.469709
      ],
      [
       -0.135168,
       51.46875
      ],
      [
       -0.13658,
       51.468377
      ],
      [
       -0.136469,
       51.468225
      ],
      [
       -0.135199,
       51.467231
      ],
      [
       -0.134406,
       51.466721
      ],
      [
       -0.131691,
       51.465194
      ],
      [
       -0.12944,
       51.464098
      ],
      [
       -0.129417,
       51.465152
      ],
      [
       -0.12613,
       51.465688
      ],
      [
       -0.124932,
       51.465913
      ],
      [
       -0.124322,
       51.466109
      ],
      [
       -0.121578,
       51.467297
      ],
      [
       -0.120766,
       51.467795
      ],
      [
       -0.120449,
       51.46792
      ],
      [
       -0.119828,
       51.468304
      ],
      [
       -0.119182,
       51.46904
      ],
      [
       -0.118168,
       51.469667
      ],
      [
       -0.117765,
       51.469767
      ],
      [
       -0.117949,
       51.469997
      ],
      [
       -0.115568,
       51.470564
      ],
      [
       -0.112591,
       51.470897
      ],
      [
       -0.112736,
       51.472583
      ],
      [
       -0.112698,
       51.473422
      ],
      [
       -0.113025,
       51.473428
      ],
      [
       -0.113012,
       51.473636
      ]
     ]
    ]
   },
   "properties": {
    "id": "LAM-CPZ-01",
    "zone": "Stockwell",
    "timing_zone": "Stockwell 'S'",
    "code": "S",
    "timings": "Mon-Fri 0830-1730",
    "council_area_m2": 1931453,
    "boundary_accuracy": "about 4 m (simplified)",
    "source": "https://gis.lambeth.gov.uk/arcgis/rest/services/LambethCPZTimingZones/MapServer/0",
    "updated": "2026-09-28"
   }
  },
  {
   "type": "Feature",
   "geometry": {
    "type": "Polygon",
    "coordinates": [
     [
      [
       -0.145288,
       51.46209
      ],
      [
       -0.146091,
       51.463795
      ],
      [
       -0.147395,
       51.465977
      ],
      [
       -0.146788,
       51.466154
      ],
      [
       -0.147211,
       51.466819
      ],
      [
       -0.149353,
       51.466228
      ],
      [
       -0.14857,
       51.46477
      ],
      [
       -0.14821,
       51.463038
      ],
      [
       -0.147865,
       51.46209
      ],
      [
       -0.148429,
       51.462005
      ],
      [
       -0.148373,
       51.461851
      ],
      [
       -0.147774,
       51.461938
      ],
      [
       -0.147558,
       51.461492
      ],
      [
       -0.146795,
       51.461476
      ],
      [
       -0.145288,
       51.46209
      ]
     ]
    ]
   },
   "properties": {
    "id": "LAM-CPZ-02",
    "zone": "Clapham",
    "timing_zone": "Clapham 'C'",
    "code": "C",
    "timings": "Mon-Fri 0900-1530",
    "council_area_m2": 83901,
    "boundary_accuracy": "about 4 m (simplified)",
    "source": "https://gis.lambeth.gov.uk/arcgis/rest/services/LambethCPZTimingZones/MapServer/0",
    "updated": "2026-09-28"
   }
  },
  {
   "type": "Feature",
   "geometry": {
    "type": "Polygon",
    "coordinates": [
     [
      [
       -0.135521,
       51.462494
      ],
      [
       -0.134836,
       51.461831
      ],
      [
       -0.134654,
       51.461825
      ],
      [
       -0.133691,
       51.461381
      ],
      [
       -0.134603,
       51.461411
      ],
      [
       -0.135345,
       51.461234
      ],
      [
       -0.135834,
       51.460979
      ],
      [
       -0.135564,
       51.460786
      ],
      [
       -0.135019,
       51.461049
      ],
      [
       -0.134547,
       51.461153
      ],
      [
       -0.134089,
       51.46115
      ],
      [
       -0.133071,
       51.461082
      ],
      [
       -0.13235,
       51.460704
      ],
      [
       -0.132577,
       51.46055
      ],
      [
       -0.133367,
       51.460231
      ],
      [
       -0.133679,
       51.45995
      ],
      [
       -0.133364,
       51.4598
      ],
      [
       -0.133065,
       51.460054
      ],
      [
       -0.132745,
       51.460196
      ],
      [
       -0.132131,
       51.459871
      ],
      [
       -0.131533,
       51.459881
      ],
      [
       -0.13154,
       51.460038
      ],
      [
       -0.132042,
       51.46003
      ],
      [
       -0.132511,
       51.460279
      ],
      [
       -0.132319,
       51.460347
      ],
      [
       -0.131758,
       51.460728
      ],
      [
       -0.131927,
       51.460817
      ],
      [
       -0.131732,
       51.460977
      ],
      [
       -0.131031,
       51.460565
      ],
      [
       -0.13133,
       51.460322
      ],
      [
       -0.131131,
       51.460226
      ],
      [
       -0.130468,
       51.460742
      ],
      [
       -0.130184,
       51.460602
      ],
      [
       -0.1302,
       51.460026
      ],
      [
       -0.129948,
       51.460023
      ],
      [
       -0.129932,
       51.460618
      ],
      [
       -0.129638,
       51.46063
      ],
      [
       -0.129655,
       51.460787
      ],
      [
       -0.130114,
       51.460768
      ],
      [
       -0.130307,
       51.460863
      ],
      [
       -0.129886,
       51.461156
      ],
      [
       -0.129551,
       51.461276
      ],
      [
       -0.129622,
       51.463279
      ],
      [
       -0.129989,
       51.463405
      ],
      [
       -0.130311,
       51.4636
      ],
      [
       -0.131044,
       51.464257
      ],
      [
       -0.134321,
       51.462891
      ],
      [
       -0.135521,
       51.462494
      ]
     ]
    ]
   },
   "properties": {
    "id": "LAM-CPZ-03",
    "zone": "Clapham",
    "timing_zone": "Clapham 'C'",
    "code": "C",
    "timings": "Mon-Fri 0830-1830; Residents Only 0830-2030",
    "council_area_m2": 115578,
    "boundary_accuracy": "about 4 m (simplified)",
    "source": "https://gis.lambeth.gov.uk/arcgis/rest/services/LambethCPZTimingZones/MapServer/0",
    "updated": "2026-09-28"
   }
  },
  {
   "type": "Feature",
   "geometry": {
    "type": "Polygon",
    "coordinates": [
     [
      [
       -0.122802,
       51.494575
      ],
      [
       -0.122831,
       51.494436
      ],
      [
       -0.121628,
       51.494325
      ],
      [
       -0.121364,
       51.493974
      ],
      [
       -0.121399,
       51.493869
      ],
      [
       -0.120924,
       51.493799
      ],
      [
       -0.119275,
       51.49453
      ],
      [
       -0.117338,
       51.49484
      ],
      [
       -0.115409,
       51.495249
      ],
      [
       -0.111378,
       51.496266
      ],
      [
       -0.111451,
       51.496396
      ],
      [
       -0.110236,
       51.496682
      ],
      [
       -0.11032,
       51.496867
      ],
      [
       -0.109518,
       51.498408
      ],
      [
       -0.108273,
       51.50044
      ],
      [
       -0.106684,
       51.501661
      ],
      [
       -0.10641,
       51.501541
      ],
      [
       -0.105885,
       51.501954
      ],
      [
       -0.106109,
       51.502066
      ],
      [
       -0.105955,
       51.502206
      ],
      [
       -0.106028,
       51.502528
      ],
      [
       -0.106817,
       51.502189
      ],
      [
       -0.107437,
       51.502955
      ],
      [
       -0.106349,
       51.503321
      ],
      [
       -0.106475,
       51.50403
      ],
      [
       -0.106383,
       51.504747
      ],
      [
       -0.107341,
       51.50709
      ],
      [
       -0.108154,
       51.506929
      ],
      [
       -0.108459,
       51.507804
      ],
      [
       -0.108697,
       51.507746
      ],
      [
       -0.108866,
       51.508223
      ],
      [
       -0.109149,
       51.509875
      ],
      [
       -0.111108,
       51.509799
      ],
      [
       -0.112607,
       51.509668
      ],
      [
       -0.114458,
       51.509406
      ],
      [
       -0.115991,
       51.509052
      ],
      [
       -0.117937,
       51.508325
      ],
      [
       -0.11923,
       51.5074
      ],
      [
       -0.119941,
       51.506717
      ],
      [
       -0.12071,
       51.505805
      ],
      [
       -0.121091,
       51.504846
      ],
      [
       -0.122124,
       51.499051
      ],
      [
       -0.122561,
       51.49551
      ],
      [
       -0.122802,
       51.494575
      ]
     ]
    ]
   },
   "properties": {
    "id": "LAM-CPZ-04",
    "zone": "Waterloo",
    "timing_zone": "Waterloo 'W'",
    "code": "W",
    "timings": "Mon-Fri 0830-1830; Sat 0830-1330",
    "council_area_m2": 1427129,
    "boundary_accuracy": "about 4 m (simplified)",
    "source": "https://gis.lambeth.gov.uk/arcgis/rest/services/LambethCPZTimingZones/MapServer/0",
    "updated": "2026-09-28"
   }
  },
  {
   "type": "Feature",
   "geometry": {
    "type": "MultiPolygon",
    "coordinates": [
     [
      [
       [
        -0.106576,
        51.489698
       ],
       [
        -0.10674,
        51.489761
       ],
       [
        -0.106587,
        51.490001
       ],
       [
        -0.106941,
        51.490163
       ],
       [
        -0.108122,
        51.489595
       ],
       [
        -0.110921,
        51.488789
       ],
       [
        -0.111045,
        51.4872
       ],
       [
        -0.111056,
        51.486227
       ],
       [
        -0.111005,
        51.485582
       ],
       [
        -0.110931,
        51.485367
       ],
       [
        -0.110117,
        51.484693
       ],
       [
        -0.108767,
        51.485891
       ],
       [
        -0.106774,
        51.487818
       ],
       [
        -0.106211,
        51.488536
       ],
       [
        -0.106628,
        51.488693
       ],
       [
        -0.107096,
        51.488225
       ],
       [
        -0.107736,
        51.488586
       ],
       [
        -0.106979,
        51.489383
       ],
       [
        -0.106914,
        51.489358
       ],
       [
        -0.106576,
        51.489698
       ]
      ]
     ],
     [
      [
       [
        -0.111608,
        51.485689
       ],
       [
        -0.111638,
        51.486967
       ],
       [
        -0.112026,
        51.487255
       ],
       [
        -0.112367,
        51.487067
       ],
       [
        -0.112177,
        51.486933
       ],
       [
        -0.111924,
        51.486618
       ],
       [
        -0.112704,
        51.486302
       ],
       [
        -0.112224,
        51.485827
       ],
       [
        -0.113762,
        51.48534
       ],
       [
        -0.113543,
        51.485071
       ],
       [
        -0.111936,
        51.485581
       ],
       [
        -0.111624,
        51.485312
       ],
       [
        -0.111529,
        51.48535
       ],
       [
        -0.111608,
        51.485689
       ]
      ]
     ]
    ]
   },
   "properties": {
    "id": "LAM-CPZ-05",
    "zone": "Kennington",
    "timing_zone": "Kennington Sub-Zone 'KS'",
    "code": "KS",
    "timings": "Mon-Fri 0830-1830",
    "council_area_m2": 121967,
    "boundary_accuracy": "about 4 m (simplified)",
    "source": "https://gis.lambeth.gov.uk/arcgis/rest/services/LambethCPZTimingZones/MapServer/0",
    "updated": "2026-09-28"
   }
  },
  {
   "type": "Feature",
   "geometry": {
    "type": "Polygon",
    "coordinates": [
     [
      [
       -0.124041,
       51.482555
      ],
      [
       -0.124181,
       51.482367
      ],
      [
       -0.124448,
       51.481747
      ],
      [
       -0.12458,
       51.481076
      ],
      [
       -0.124183,
       51.480096
      ],
      [
       -0.1236,
       51.479328
      ],
      [
       -0.121823,
       51.479251
      ],
      [
       -0.121192,
       51.479705
      ],
      [
       -0.1198,
       51.479182
      ],
      [
       -0.120393,
       51.478358
      ],
      [
       -0.118868,
       51.477768
      ],
      [
       -0.118951,
       51.47767
      ],
      [
       -0.117367,
       51.477077
      ],
      [
       -0.119537,
       51.475065
      ],
      [
       -0.119318,
       51.474979
      ],
      [
       -0.119409,
       51.474885
      ],
      [
       -0.116642,
       51.473501
      ],
      [
       -0.116338,
       51.473291
      ],
      [
       -0.113017,
       51.473727
      ],
      [
       -0.113016,
       51.473787
      ],
      [
       -0.112723,
       51.473786
      ],
      [
       -0.112406,
       51.476867
      ],
      [
       -0.11225,
       51.477789
      ],
      [
       -0.111647,
       51.479693
      ],
      [
       -0.11066,
       51.481284
      ],
      [
       -0.108257,
       51.4803
      ],
      [
       -0.108123,
       51.480406
      ],
      [
       -0.107275,
       51.480511
      ],
      [
       -0.107392,
       51.481059
      ],
      [
       -0.106779,
       51.481157
      ],
      [
       -0.104899,
       51.481862
      ],
      [
       -0.105108,
       51.482085
      ],
      [
       -0.105269,
       51.482088
      ],
      [
       -0.106018,
       51.482699
      ],
      [
       -0.105612,
       51.482944
      ],
      [
       -0.106603,
       51.483446
      ],
      [
       -0.107183,
       51.483656
      ],
      [
       -0.106538,
       51.484566
      ],
      [
       -0.106572,
       51.484636
      ],
      [
       -0.106339,
       51.484886
      ],
      [
       -0.108481,
       51.48583
      ],
      [
       -0.106692,
       51.487558
      ],
      [
       -0.105475,
       51.488937
      ],
      [
       -0.10497,
       51.489308
      ],
      [
       -0.104124,
       51.490105
      ],
      [
       -0.103145,
       51.491147
      ],
      [
       -0.103416,
       51.491318
      ],
      [
       -0.103168,
       51.491476
      ],
      [
       -0.103525,
       51.491699
      ],
      [
       -0.103403,
       51.491778
      ],
      [
       -0.103735,
       51.492
      ],
      [
       -0.103924,
       51.491941
      ],
      [
       -0.104528,
       51.492966
      ],
      [
       -0.104705,
       51.493043
      ],
      [
       -0.104826,
       51.493543
      ],
      [
       -0.105412,
       51.493622
      ],
      [
       -0.10649,
       51.493934
      ],
      [
       -0.110937,
       51.495475
      ],
      [
       -0.111331,
       51.496181
      ],
      [
       -0.115915,
       51.495039
      ],
      [
       -0.119213,
       51.494447
      ],
      [
       -0.120894,
       51.493702
      ],
      [
       -0.121569,
       51.493802
      ],
      [
       -0.121515,
       51.493963
      ],
      [
       -0.121725,
       51.494243
      ],
      [
       -0.122852,
       51.494347
      ],
      [
       -0.123011,
       51.493627
      ],
      [
       -0.123401,
       51.492768
      ],
      [
       -0.123768,
       51.492302
      ],
      [
       -0.123864,
       51.492064
      ],
      [
       -0.123984,
       51.491263
      ],
      [
       -0.124485,
       51.490521
      ],
      [
       -0.126936,
       51.487801
      ],
      [
       -0.128339,
       51.486683
      ],
      [
       -0.129482,
       51.48589
      ],
      [
       -0.128473,
       51.485097
      ],
      [
       -0.128152,
       51.484724
      ],
      [
       -0.127594,
       51.484696
      ],
      [
       -0.126302,
       51.484467
      ],
      [
       -0.127013,
       51.483637
      ],
      [
       -0.127213,
       51.48325
      ],
      [
       -0.124041,
       51.482555
      ]
     ]
    ]
   },
   "properties": {
    "id": "LAM-CPZ-06",
    "zone": "Kennington",
    "timing_zone": "Kennington 'K'",
    "code": "K",
    "timings": "Mon-Fri 0830-1830",
    "council_area_m2": 2577381,
    "boundary_accuracy": "about 4 m (simplified)",
    "source": "https://gis.lambeth.gov.uk/arcgis/rest/services/LambethCPZTimingZones/MapServer/0",
    "updated": "2026-09-28"
   }
  },
  {
   "type": "Feature",
   "geometry": {
    "type": "Polygon",
    "coordinates": [
     [
      [
       -0.092554,
       51.469019
      ],
      [
       -0.092696,
       51.469212
      ],
      [
       -0.092398,
       51.469284
      ],
      [
       -0.092735,
       51.469824
      ],
      [
       -0.092872,
       51.470255
      ],
      [
       -0.093021,
       51.472031
      ],
      [
       -0.093321,
       51.471951
      ],
      [
       -0.093622,
       51.471735
      ],
      [
       -0.093954,
       51.470923
      ],
      [
       -0.094118,
       51.470705
      ],
      [
       -0.094689,
       51.470374
      ],
      [
       -0.095985,
       51.469862
      ],
      [
       -0.099116,
       51.472073
      ],
      [
       -0.099329,
       51.472335
      ],
      [
       -0.099424,
       51.472566
      ],
      [
       -0.099987,
       51.472102
      ],
      [
       -0.100884,
       51.471191
      ],
      [
       -0.10131,
       51.470638
      ],
      [
       -0.101868,
       51.469517
      ],
      [
       -0.102069,
       51.468826
      ],
      [
       -0.10166,
       51.468816
      ],
      [
       -0.101698,
       51.46856
      ],
      [
       -0.102117,
       51.46857
      ],
      [
       -0.10224,
       51.467616
      ],
      [
       -0.101957,
       51.466275
      ],
      [
       -0.101785,
       51.465906
      ],
      [
       -0.101664,
       51.465955
      ],
      [
       -0.100701,
       51.465242
      ],
      [
       -0.099265,
       51.465442
      ],
      [
       -0.098914,
       51.465618
      ],
      [
       -0.098783,
       51.465516
      ],
      [
       -0.098576,
       51.46562
      ],
      [
       -0.099009,
       51.465957
      ],
      [
       -0.098607,
       51.466158
      ],
      [
       -0.097523,
       51.467008
      ],
      [
       -0.096072,
       51.467788
      ],
      [
       -0.092554,
       51.469019
      ]
     ]
    ]
   },
   "properties": {
    "id": "LAM-CPZ-07",
    "zone": "Camberwell",
    "timing_zone": "Camberwell 'A'",
    "code": "A",
    "timings": "Mon-Fri 0830-1830",
    "council_area_m2": 290933,
    "boundary_accuracy": "about 4 m (simplified)",
    "source": "https://gis.lambeth.gov.uk/arcgis/rest/services/LambethCPZTimingZones/MapServer/0",
    "updated": "2026-09-28"
   }
  },
  {
   "type": "Feature",
   "geometry": {
    "type": "Polygon",
    "coordinates": [
     [
      [
       -0.136139,
       51.447799
      ],
      [
       -0.142077,
       51.447823
      ],
      [
       -0.143377,
       51.447915
      ],
      [
       -0.144983,
       51.448138
      ],
      [
       -0.144936,
       51.44826
      ],
      [
       -0.145067,
       51.448279
      ],
      [
       -0.14554,
       51.446834
      ],
      [
       -0.145726,
       51.446011
      ],
      [
       -0.145668,
       51.445286
      ],
      [
       -0.145483,
       51.444828
      ],
      [
       -0.14482,
       51.443742
      ],
      [
       -0.143795,
       51.44171
      ],
      [
       -0.137744,
       51.441601
      ],
      [
       -0.136085,
       51.441892
      ],
      [
       -0.135133,
       51.442365
      ],
      [
       -0.134008,
       51.442504
      ],
      [
       -0.132981,
       51.442821
      ],
      [
       -0.133923,
       51.443918
      ],
      [
       -0.133482,
       51.444034
      ],
      [
       -0.133281,
       51.444233
      ],
      [
       -0.132704,
       51.445414
      ],
      [
       -0.131798,
       51.447531
      ],
      [
       -0.132235,
       51.44766
      ],
      [
       -0.132718,
       51.446529
      ],
      [
       -0.13455,
       51.446861
      ],
      [
       -0.135037,
       51.446693
      ],
      [
       -0.136151,
       51.447647
      ],
      [
       -0.136139,
       51.447799
      ]
     ]
    ]
   },
   "properties": {
    "id": "LAM-CPZ-08",
    "zone": "Thornton",
    "timing_zone": "Thornton 'R'",
    "code": "R",
    "timings": "Mon-Fri 0830-1730",
    "council_area_m2": 541049,
    "boundary_accuracy": "about 4 m (simplified)",
    "source": "https://gis.lambeth.gov.uk/arcgis/rest/services/LambethCPZTimingZones/MapServer/0",
    "updated": "2026-09-28"
   }
  },
  {
   "type": "Feature",
   "geometry": {
    "type": "Polygon",
    "coordinates": [
     [
      [
       -0.11968,
       51.455792
      ],
      [
       -0.118129,
       51.458604
      ],
      [
       -0.120701,
       51.45913
      ],
      [
       -0.121022,
       51.459651
      ],
      [
       -0.123919,
       51.459316
      ],
      [
       -0.12539,
       51.459405
      ],
      [
       -0.125372,
       51.459141
      ],
      [
       -0.125926,
       51.459126
      ],
      [
       -0.125948,
       51.459452
      ],
      [
       -0.129222,
       51.459478
      ],
      [
       -0.129147,
       51.458991
      ],
      [
       -0.129135,
       51.457952
      ],
      [
       -0.129439,
       51.455511
      ],
      [
       -0.129593,
       51.454628
      ],
      [
       -0.129676,
       51.454599
      ],
      [
       -0.130238,
       51.452928
      ],
      [
       -0.126419,
       51.452376
      ],
      [
       -0.121586,
       51.45183
      ],
      [
       -0.119078,
       51.455678
      ],
      [
       -0.11968,
       51.455792
      ]
     ]
    ]
   },
   "properties": {
    "id": "LAM-CPZ-09",
    "zone": "Brixton",
    "timing_zone": "Brixton 'E'",
    "code": "E",
    "timings": "Mon-Fri 0830-1830",
    "council_area_m2": 543383,
    "boundary_accuracy": "about 4 m (simplified)",
    "source": "https://gis.lambeth.gov.uk/arcgis/rest/services/LambethCPZTimingZones/MapServer/0",
    "updated": "2026-09-28"
   }
  },
  {
   "type": "Feature",
   "geometry": {
    "type": "Polygon",
    "coordinates": [
     [
      [
       -0.113442,
       51.44755
      ],
      [
       -0.113145,
       51.447561
      ],
      [
       -0.113124,
       51.448512
      ],
      [
       -0.113038,
       51.449033
      ],
      [
       -0.113331,
       51.449052
      ],
      [
       -0.115842,
       51.448622
      ],
      [
       -0.116614,
       51.449877
      ],
      [
       -0.116947,
       51.450105
      ],
      [
       -0.116224,
       51.450565
      ],
      [
       -0.115929,
       51.451014
      ],
      [
       -0.114708,
       51.450757
      ],
      [
       -0.11335,
       51.450856
      ],
      [
       -0.11383,
       51.452411
      ],
      [
       -0.113798,
       51.452809
      ],
      [
       -0.11366,
       51.453177
      ],
      [
       -0.113725,
       51.453186
      ],
      [
       -0.113651,
       51.453391
      ],
      [
       -0.114652,
       51.455081
      ],
      [
       -0.119,
       51.45541
      ],
      [
       -0.118868,
       51.455635
      ],
      [
       -0.118942,
       51.45565
      ],
      [
       -0.12151,
       51.451711
      ],
      [
       -0.121579,
       51.45173
      ],
      [
       -0.121716,
       51.451536
      ],
      [
       -0.120544,
       51.451044
      ],
      [
       -0.117805,
       51.449386
      ],
      [
       -0.116841,
       51.448073
      ],
      [
       -0.116289,
       51.447724
      ],
      [
       -0.116161,
       51.447479
      ],
      [
       -0.115507,
       51.44771
      ],
      [
       -0.11345,
       51.447801
      ],
      [
       -0.113442,
       51.44755
      ]
     ]
    ]
   },
   "properties": {
    "id": "LAM-CPZ-10",
    "zone": "Brixton Hill East",
    "timing_zone": "Brixton Hill East 'Q'",
    "code": "Q",
    "timings": "Mon-Fri 0830-1830",
    "council_area_m2": 293506,
    "boundary_accuracy": "about 4 m (simplified)",
    "source": "https://gis.lambeth.gov.uk/arcgis/rest/services/LambethCPZTimingZones/MapServer/0",
    "updated": "2026-09-28"
   }
  },
  {
   "type": "Feature",
   "geometry": {
    "type": "Polygon",
    "coordinates": [
     [
      [
       -0.110747,
       51.455346
      ],
      [
       -0.110257,
       51.455607
      ],
      [
       -0.110088,
       51.455489
      ],
      [
       -0.110006,
       51.455552
      ],
      [
       -0.108204,
       51.457584
      ],
      [
       -0.108385,
       51.457696
      ],
      [
       -0.107488,
       51.458655
      ],
      [
       -0.110066,
       51.460607
      ],
      [
       -0.110338,
       51.460557
      ],
      [
       -0.110474,
       51.461042
      ],
      [
       -0.109636,
       51.461378
      ],
      [
       -0.110165,
       51.461836
      ],
      [
       -0.110367,
       51.462105
      ],
      [
       -0.107417,
       51.462874
      ],
      [
       -0.103262,
       51.464461
      ],
      [
       -0.103561,
       51.464779
      ],
      [
       -0.105174,
       51.464348
      ],
      [
       -0.106517,
       51.463862
      ],
      [
       -0.107513,
       51.463647
      ],
      [
       -0.107832,
       51.464123
      ],
      [
       -0.107877,
       51.464359
      ],
      [
       -0.107831,
       51.464521
      ],
      [
       -0.107349,
       51.464455
      ],
      [
       -0.107282,
       51.464646
      ],
      [
       -0.107595,
       51.464689
      ],
      [
       -0.107559,
       51.464792
      ],
      [
       -0.107753,
       51.464819
      ],
      [
       -0.107373,
       51.465246
      ],
      [
       -0.107066,
       51.465465
      ],
      [
       -0.108044,
       51.466209
      ],
      [
       -0.109062,
       51.465961
      ],
      [
       -0.109384,
       51.466284
      ],
      [
       -0.109804,
       51.467117
      ],
      [
       -0.109489,
       51.46761
      ],
      [
       -0.10987,
       51.467705
      ],
      [
       -0.110022,
       51.467467
      ],
      [
       -0.110625,
       51.467417
      ],
      [
       -0.111969,
       51.467395
      ],
      [
       -0.112835,
       51.467451
      ],
      [
       -0.112623,
       51.467991
      ],
      [
       -0.112456,
       51.468821
      ],
      [
       -0.112563,
       51.470809
      ],
      [
       -0.115525,
       51.470477
      ],
      [
       -0.11775,
       51.469949
      ],
      [
       -0.117565,
       51.469719
      ],
      [
       -0.118088,
       51.469591
      ],
      [
       -0.119066,
       51.468985
      ],
      [
       -0.119713,
       51.468248
      ],
      [
       -0.120358,
       51.46785
      ],
      [
       -0.120675,
       51.467724
      ],
      [
       -0.121488,
       51.467226
      ],
      [
       -0.124248,
       51.466032
      ],
      [
       -0.124878,
       51.46583
      ],
      [
       -0.129275,
       51.46508
      ],
      [
       -0.129296,
       51.462574
      ],
      [
       -0.12911,
       51.459569
      ],
      [
       -0.125809,
       51.459531
      ],
      [
       -0.125788,
       51.45922
      ],
      [
       -0.125522,
       51.459227
      ],
      [
       -0.125541,
       51.459509
      ],
      [
       -0.123927,
       51.459406
      ],
      [
       -0.12093,
       51.459753
      ],
      [
       -0.120591,
       51.459203
      ],
      [
       -0.117946,
       51.458659
      ],
      [
       -0.119494,
       51.455852
      ],
      [
       -0.118681,
       51.455691
      ],
      [
       -0.118801,
       51.455487
      ],
      [
       -0.114547,
       51.455163
      ],
      [
       -0.113501,
       51.453397
      ],
      [
       -0.113553,
       51.453254
      ],
      [
       -0.112457,
       51.453101
      ],
      [
       -0.112121,
       51.452235
      ],
      [
       -0.111058,
       51.452383
      ],
      [
       -0.111589,
       51.453845
      ],
      [
       -0.111485,
       51.453859
      ],
      [
       -0.111948,
       51.455123
      ],
      [
       -0.110747,
       51.455346
      ]
     ]
    ]
   },
   "properties": {
    "id": "LAM-CPZ-11",
    "zone": "Brixton",
    "timing_zone": "Brixton 'B'",
    "code": "B",
    "timings": "Mon-Fri 0830-1730",
    "council_area_m2": 1710513,
    "boundary_accuracy": "about 4 m (simplified)",
    "source": "https://gis.lambeth.gov.uk/arcgis/rest/services/LambethCPZTimingZones/MapServer/0",
    "updated": "2026-09-28"
   }
  },
  {
   "type": "Feature",
   "geometry": {
    "type": "Polygon",
    "coordinates": [
     [
      [
       -0.11068,
       51.455264
      ],
      [
       -0.111094,
       51.455205
      ],
      [
       -0.110853,
       51.454572
      ],
      [
       -0.109207,
       51.453707
      ],
      [
       -0.106148,
       51.452695
      ],
      [
       -0.105726,
       51.453178
      ],
      [
       -0.103019,
       51.452312
      ],
      [
       -0.101813,
       51.452134
      ],
      [
       -0.101549,
       51.452786
      ],
      [
       -0.101583,
       51.452842
      ],
      [
       -0.102783,
       51.454286
      ],
      [
       -0.102904,
       51.454241
      ],
      [
       -0.103009,
       51.454357
      ],
      [
       -0.104089,
       51.456076
      ],
      [
       -0.104667,
       51.456702
      ],
      [
       -0.105163,
       51.457132
      ],
      [
       -0.1044,
       51.457732
      ],
      [
       -0.103957,
       51.458677
      ],
      [
       -0.102509,
       51.462382
      ],
      [
       -0.10192,
       51.464095
      ],
      [
       -0.102951,
       51.464633
      ],
      [
       -0.10326,
       51.464461
      ],
      [
       -0.102373,
       51.463997
      ],
      [
       -0.102953,
       51.462329
      ],
      [
       -0.104354,
       51.458742
      ],
      [
       -0.104771,
       51.457852
      ],
      [
       -0.105421,
       51.45734
      ],
      [
       -0.107384,
       51.458589
      ],
      [
       -0.108204,
       51.457711
      ],
      [
       -0.108025,
       51.4576
      ],
      [
       -0.109886,
       51.455502
      ],
      [
       -0.110071,
       51.455358
      ],
      [
       -0.110273,
       51.455481
      ],
      [
       -0.11068,
       51.455264
      ]
     ]
    ]
   },
   "properties": {
    "id": "LAM-CPZ-12",
    "zone": "Poets Corner",
    "timing_zone": "Poets Corner (Herne Hill)",
    "code": "P",
    "timings": "Mon-Fri 0830-1730",
    "council_area_m2": 256246,
    "boundary_accuracy": "about 4 m (simplified)",
    "source": "https://gis.lambeth.gov.uk/arcgis/rest/services/LambethCPZTimingZones/MapServer/0",
    "updated": "2026-09-28"
   }
  },
  {
   "type": "Feature",
   "geometry": {
    "type": "Polygon",
    "coordinates": [
     [
      [
       -0.101417,
       51.452823
      ],
      [
       -0.101349,
       51.452505
      ],
      [
       -0.10102,
       51.452967
      ],
      [
       -0.101065,
       51.453837
      ],
      [
       -0.100821,
       51.454146
      ],
      [
       -0.100116,
       51.454707
      ],
      [
       -0.098941,
       51.455506
      ],
      [
       -0.09715,
       51.456443
      ],
      [
       -0.095549,
       51.457669
      ],
      [
       -0.094861,
       51.458835
      ],
      [
       -0.094595,
       51.459121
      ],
      [
       -0.093789,
       51.459868
      ],
      [
       -0.092117,
       51.461158
      ],
      [
       -0.091305,
       51.462219
      ],
      [
       -0.090689,
       51.463287
      ],
      [
       -0.090139,
       51.465323
      ],
      [
       -0.090054,
       51.466029
      ],
      [
       -0.090351,
       51.466605
      ],
      [
       -0.092213,
       51.469014
      ],
      [
       -0.09599,
       51.467713
      ],
      [
       -0.097418,
       51.466945
      ],
      [
       -0.098505,
       51.466095
      ],
      [
       -0.098806,
       51.465943
      ],
      [
       -0.098373,
       51.465607
      ],
      [
       -0.098805,
       51.46539
      ],
      [
       -0.098936,
       51.465492
      ],
      [
       -0.099199,
       51.465359
      ],
      [
       -0.100594,
       51.465163
      ],
      [
       -0.10056,
       51.465138
      ],
      [
       -0.101863,
       51.46504
      ],
      [
       -0.101822,
       51.464493
      ],
      [
       -0.101864,
       51.463475
      ],
      [
       -0.102016,
       51.462456
      ],
      [
       -0.10236,
       51.461247
      ],
      [
       -0.103648,
       51.457706
      ],
      [
       -0.103718,
       51.456767
      ],
      [
       -0.10368,
       51.456303
      ],
      [
       -0.103752,
       51.456301
      ],
      [
       -0.103829,
       51.455912
      ],
      [
       -0.102877,
       51.454394
      ],
      [
       -0.102725,
       51.454412
      ],
      [
       -0.101417,
       51.452823
      ]
     ]
    ]
   },
   "properties": {
    "id": "LAM-CPZ-13",
    "zone": "Herne Hill",
    "timing_zone": "Herne Hill 'N'",
    "code": "N",
    "timings": "Mon-Fri 1200-1400",
    "council_area_m2": 908306,
    "boundary_accuracy": "about 4 m (simplified)",
    "source": "https://gis.lambeth.gov.uk/arcgis/rest/services/LambethCPZTimingZones/MapServer/0",
    "updated": "2026-09-28"
   }
  },
  {
   "type": "Feature",
   "geometry": {
    "type": "Polygon",
    "coordinates": [
     [
      [
       -0.100404,
       51.447318
      ],
      [
       -0.100257,
       51.447408
      ],
      [
       -0.099955,
       51.447215
      ],
      [
       -0.098304,
       51.448375
      ],
      [
       -0.099183,
       51.448984
      ],
      [
       -0.0994,
       51.449258
      ],
      [
       -0.099614,
       51.449923
      ],
      [
       -0.099814,
       51.450185
      ],
      [
       -0.10004,
       51.45025
      ],
      [
       -0.100764,
       51.450274
      ],
      [
       -0.100912,
       51.449908
      ],
      [
       -0.102268,
       51.448466
      ],
      [
       -0.100404,
       51.447318
      ]
     ]
    ]
   },
   "properties": {
    "id": "LAM-CPZ-14",
    "zone": "Tulse Hill",
    "timing_zone": "Tulse Hill 'H'",
    "code": "H",
    "timings": "Mon-Fri 1200-1400",
    "council_area_m2": 49711,
    "boundary_accuracy": "about 4 m (simplified)",
    "source": "https://gis.lambeth.gov.uk/arcgis/rest/services/LambethCPZTimingZones/MapServer/0",
    "updated": "2026-09-28"
   }
  },
  {
   "type": "Feature",
   "geometry": {
    "type": "Polygon",
    "coordinates": [
     [
      [
       -0.106323,
       51.438706
      ],
      [
       -0.106815,
       51.438361
      ],
      [
       -0.107254,
       51.437899
      ],
      [
       -0.107446,
       51.437686
      ],
      [
       -0.107685,
       51.437198
      ],
      [
       -0.107759,
       51.436743
      ],
      [
       -0.107723,
       51.436274
      ],
      [
       -0.107323,
       51.43546
      ],
      [
       -0.105037,
       51.436515
      ],
      [
       -0.104489,
       51.436651
      ],
      [
       -0.105348,
       51.437925
      ],
      [
       -0.102838,
       51.438964
      ],
      [
       -0.101816,
       51.439454
      ],
      [
       -0.102151,
       51.439616
      ],
      [
       -0.10171,
       51.439868
      ],
      [
       -0.102708,
       51.44035
      ],
      [
       -0.103779,
       51.440778
      ],
      [
       -0.104299,
       51.440907
      ],
      [
       -0.103957,
       51.441832
      ],
      [
       -0.104622,
       51.442469
      ],
      [
       -0.104983,
       51.442721
      ],
      [
       -0.104666,
       51.443833
      ],
      [
       -0.104659,
       51.444427
      ],
      [
       -0.105439,
       51.444397
      ],
      [
       -0.108644,
       51.443703
      ],
      [
       -0.10856,
       51.44345
      ],
      [
       -0.108361,
       51.443493
      ],
      [
       -0.107036,
       51.441837
      ],
      [
       -0.10668,
       51.441603
      ],
      [
       -0.106889,
       51.4413
      ],
      [
       -0.108201,
       51.441653
      ],
      [
       -0.109337,
       51.442747
      ],
      [
       -0.110376,
       51.443968
      ],
      [
       -0.112391,
       51.443349
      ],
      [
       -0.112238,
       51.443111
      ],
      [
       -0.110718,
       51.443565
      ],
      [
       -0.109426,
       51.442115
      ],
      [
       -0.10872,
       51.441472
      ],
      [
       -0.108973,
       51.440991
      ],
      [
       -0.109033,
       51.440625
      ],
      [
       -0.108449,
       51.44057
      ],
      [
       -0.108537,
       51.440206
      ],
      [
       -0.106512,
       51.440021
      ],
      [
       -0.106522,
       51.439448
      ],
      [
       -0.106323,
       51.438706
      ]
     ]
    ]
   },
   "properties": {
    "id": "LAM-CPZ-15",
    "zone": "Tulse Hill",
    "timing_zone": "Tulse Hill 'H'",
    "code": "H",
    "timings": "Mon-Fri 0830-1830",
    "council_area_m2": 237601,
    "boundary_accuracy": "about 4 m (simplified)",
    "source": "https://gis.lambeth.gov.uk/arcgis/rest/services/LambethCPZTimingZones/MapServer/0",
    "updated": "2026-09-28"
   }
  },
  {
   "type": "Feature",
   "geometry": {
    "type": "Polygon",
    "coordinates": [
     [
      [
       -0.137591,
       51.456579
      ],
      [
       -0.135312,
       51.457834
      ],
      [
       -0.134724,
       51.458343
      ],
      [
       -0.138549,
       51.460562
      ],
      [
       -0.138139,
       51.460841
      ],
      [
       -0.13874,
       51.461184
      ],
      [
       -0.137874,
       51.461738
      ],
      [
       -0.137982,
       51.461804
      ],
      [
       -0.139562,
       51.460782
      ],
      [
       -0.139827,
       51.46094
      ],
      [
       -0.148273,
       51.461099
      ],
      [
       -0.149641,
       51.461068
      ],
      [
       -0.149355,
       51.4593
      ],
      [
       -0.149182,
       51.458845
      ],
      [
       -0.148302,
       51.457277
      ],
      [
       -0.148061,
       51.455907
      ],
      [
       -0.144335,
       51.456573
      ],
      [
       -0.144099,
       51.456487
      ],
      [
       -0.142771,
       51.45804
      ],
      [
       -0.142051,
       51.457797
      ],
      [
       -0.141903,
       51.457981
      ],
      [
       -0.141442,
       51.457831
      ],
      [
       -0.141173,
       51.457978
      ],
      [
       -0.140371,
       51.457369
      ],
      [
       -0.140069,
       51.457507
      ],
      [
       -0.140655,
       51.457925
      ],
      [
       -0.139908,
       51.458359
      ],
      [
       -0.138526,
       51.457128
      ],
      [
       -0.138065,
       51.456934
      ],
      [
       -0.137591,
       51.456579
      ]
     ]
    ]
   },
   "properties": {
    "id": "LAM-CPZ-16",
    "zone": "Clapham",
    "timing_zone": "Clapham 'L'",
    "code": "L",
    "timings": "Mon-Fri 0900-1800",
    "council_area_m2": 387093,
    "boundary_accuracy": "about 4 m (simplified)",
    "source": "https://gis.lambeth.gov.uk/arcgis/rest/services/LambethCPZTimingZones/MapServer/0",
    "updated": "2026-09-28"
   }
  },
  {
   "type": "Feature",
   "geometry": {
    "type": "Polygon",
    "coordinates": [
     [
      [
       -0.137645,
       51.456548
      ],
      [
       -0.138112,
       51.456899
      ],
      [
       -0.138577,
       51.457096
      ],
      [
       -0.13992,
       51.458291
      ],
      [
       -0.140555,
       51.457922
      ],
      [
       -0.139963,
       51.4575
      ],
      [
       -0.140383,
       51.457308
      ],
      [
       -0.141181,
       51.457914
      ],
      [
       -0.141431,
       51.457777
      ],
      [
       -0.141872,
       51.45792
      ],
      [
       -0.142021,
       51.457735
      ],
      [
       -0.14274,
       51.457979
      ],
      [
       -0.144074,
       51.456426
      ],
      [
       -0.144345,
       51.456525
      ],
      [
       -0.148048,
       51.455863
      ],
      [
       -0.147941,
       51.455022
      ],
      [
       -0.146097,
       51.454405
      ],
      [
       -0.146296,
       51.454143
      ],
      [
       -0.14369,
       51.453167
      ],
      [
       -0.142744,
       51.452764
      ],
      [
       -0.142441,
       51.452552
      ],
      [
       -0.142122,
       51.45216
      ],
      [
       -0.142129,
       51.451465
      ],
      [
       -0.141246,
       51.451539
      ],
      [
       -0.139555,
       51.451069
      ],
      [
       -0.139046,
       51.452491
      ],
      [
       -0.138754,
       51.452673
      ],
      [
       -0.138115,
       51.453279
      ],
      [
       -0.136336,
       51.454707
      ],
      [
       -0.138126,
       51.455794
      ],
      [
       -0.138347,
       51.455607
      ],
      [
       -0.138677,
       51.455829
      ],
      [
       -0.138264,
       51.456209
      ],
      [
       -0.137645,
       51.456548
      ]
     ]
    ]
   },
   "properties": {
    "id": "LAM-CPZ-17",
    "zone": "Clapham",
    "timing_zone": "Clapham 'L'",
    "code": "L",
    "timings": "Mon-Fri 0900-2030",
    "council_area_m2": 329330,
    "boundary_accuracy": "about 4 m (simplified)",
    "source": "https://gis.lambeth.gov.uk/arcgis/rest/services/LambethCPZTimingZones/MapServer/0",
    "updated": "2026-09-28"
   }
  },
  {
   "type": "Feature",
   "geometry": {
    "type": "Polygon",
    "coordinates": [
     [
      [
       -0.129359,
       51.459406
      ],
      [
       -0.131806,
       51.459309
      ],
      [
       -0.1337,
       51.458929
      ],
      [
       -0.13462,
       51.458207
      ],
      [
       -0.134731,
       51.458261
      ],
      [
       -0.135258,
       51.457804
      ],
      [
       -0.138209,
       51.456179
      ],
      [
       -0.138585,
       51.455833
      ],
      [
       -0.138349,
       51.455674
      ],
      [
       -0.138137,
       51.455862
      ],
      [
       -0.136239,
       51.454711
      ],
      [
       -0.138058,
       51.453252
      ],
      [
       -0.138697,
       51.452645
      ],
      [
       -0.13898,
       51.452468
      ],
      [
       -0.139503,
       51.451005
      ],
      [
       -0.141255,
       51.451492
      ],
      [
       -0.14213,
       51.45142
      ],
      [
       -0.142186,
       51.450976
      ],
      [
       -0.136828,
       51.449507
      ],
      [
       -0.136263,
       51.450257
      ],
      [
       -0.135781,
       51.450744
      ],
      [
       -0.13325,
       51.453089
      ],
      [
       -0.130749,
       51.454336
      ],
      [
       -0.129727,
       51.454684
      ],
      [
       -0.129284,
       51.457918
      ],
      [
       -0.129291,
       51.458986
      ],
      [
       -0.129359,
       51.459406
      ]
     ]
    ]
   },
   "properties": {
    "id": "LAM-CPZ-18",
    "zone": "Clapham",
    "timing_zone": "Clapham 'L'",
    "code": "L",
    "timings": "Mon-Fri 1000-1200",
    "council_area_m2": 428176,
    "boundary_accuracy": "about 4 m (simplified)",
    "source": "https://gis.lambeth.gov.uk/arcgis/rest/services/LambethCPZTimingZones/MapServer/0",
    "updated": "2026-09-28"
   }
  },
  {
   "type": "Feature",
   "geometry": {
    "type": "Polygon",
    "coordinates": [
     [
      [
       -0.136302,
       51.44931
      ],
      [
       -0.142263,
       51.450941
      ],
      [
       -0.142432,
       51.450393
      ],
      [
       -0.143106,
       51.449663
      ],
      [
       -0.143701,
       51.449181
      ],
      [
       -0.14464,
       51.448632
      ],
      [
       -0.144879,
       51.448215
      ],
      [
       -0.143353,
       51.448004
      ],
      [
       -0.142069,
       51.447912
      ],
      [
       -0.136067,
       51.447889
      ],
      [
       -0.136067,
       51.447844
      ],
      [
       -0.13413,
       51.447779
      ],
      [
       -0.134071,
       51.448145
      ],
      [
       -0.134722,
       51.448078
      ],
      [
       -0.137039,
       51.448098
      ],
      [
       -0.13704,
       51.448372
      ],
      [
       -0.136788,
       51.448616
      ],
      [
       -0.136302,
       51.44931
      ]
     ]
    ]
   },
   "properties": {
    "id": "LAM-CPZ-19",
    "zone": "Clapham",
    "timing_zone": "Clapham 'L'",
    "code": "L",
    "timings": "Mon-Fri 1000-1530",
    "council_area_m2": 131508,
    "boundary_accuracy": "about 4 m (simplified)",
    "source": "https://gis.lambeth.gov.uk/arcgis/rest/services/LambethCPZTimingZones/MapServer/0",
    "updated": "2026-09-28"
   }
  },
  {
   "type": "Feature",
   "geometry": {
    "type": "Polygon",
    "coordinates": [
     [
      [
       -0.115202,
       51.464848
      ],
      [
       -0.115014,
       51.46499
      ],
      [
       -0.116408,
       51.465709
      ],
      [
       -0.117072,
       51.466431
      ],
      [
       -0.119274,
       51.465683
      ],
      [
       -0.119755,
       51.466367
      ],
      [
       -0.120103,
       51.466226
      ],
      [
       -0.118608,
       51.464125
      ],
      [
       -0.117292,
       51.463954
      ],
      [
       -0.116892,
       51.464165
      ],
      [
       -0.115727,
       51.464459
      ],
      [
       -0.115202,
       51.464848
      ]
     ]
    ]
   },
   "properties": {
    "id": "LAM-CPZ-20",
    "zone": "Brixton",
    "timing_zone": "Brixton 'B'",
    "code": "B",
    "timings": "Mon-Sat 0830-1730 or 2030",
    "council_area_m2": 52962,
    "boundary_accuracy": "about 4 m (simplified)",
    "source": "https://gis.lambeth.gov.uk/arcgis/rest/services/LambethCPZTimingZones/MapServer/0",
    "updated": "2026-09-28"
   }
  },
  {
   "type": "Feature",
   "geometry": {
    "type": "Polygon",
    "coordinates": [
     [
      [
       -0.129123,
       51.459896
      ],
      [
       -0.12911,
       51.459569
      ],
      [
       -0.125809,
       51.459531
      ],
      [
       -0.125788,
       51.45922
      ],
      [
       -0.125522,
       51.459227
      ],
      [
       -0.125541,
       51.459509
      ],
      [
       -0.123927,
       51.459406
      ],
      [
       -0.12093,
       51.459753
      ],
      [
       -0.120591,
       51.459203
      ],
      [
       -0.117946,
       51.458659
      ],
      [
       -0.117972,
       51.458613
      ],
      [
       -0.117677,
       51.458554
      ],
      [
       -0.117542,
       51.458796
      ],
      [
       -0.116421,
       51.458661
      ],
      [
       -0.116098,
       51.459041
      ],
      [
       -0.115425,
       51.45894
      ],
      [
       -0.114874,
       51.459093
      ],
      [
       -0.113766,
       51.459199
      ],
      [
       -0.111233,
       51.459693
      ],
      [
       -0.110449,
       51.45999
      ],
      [
       -0.110865,
       51.460517
      ],
      [
       -0.110368,
       51.460599
      ],
      [
       -0.110474,
       51.461042
      ],
      [
       -0.109636,
       51.461378
      ],
      [
       -0.110165,
       51.461836
      ],
      [
       -0.110367,
       51.462105
      ],
      [
       -0.107417,
       51.462874
      ],
      [
       -0.103262,
       51.464461
      ],
      [
       -0.103561,
       51.464779
      ],
      [
       -0.105174,
       51.464348
      ],
      [
       -0.105979,
       51.464023
      ],
      [
       -0.106966,
       51.463747
      ],
      [
       -0.107513,
       51.463647
      ],
      [
       -0.107768,
       51.464027
      ],
      [
       -0.108924,
       51.463793
      ],
      [
       -0.110506,
       51.464951
      ],
      [
       -0.111039,
       51.465187
      ],
      [
       -0.110972,
       51.46529
      ],
      [
       -0.110621,
       51.465262
      ],
      [
       -0.110349,
       51.465342
      ],
      [
       -0.110176,
       51.466051
      ],
      [
       -0.110262,
       51.466212
      ],
      [
       -0.110362,
       51.466244
      ],
      [
       -0.110026,
       51.46677
      ],
      [
       -0.110407,
       51.466865
      ],
      [
       -0.110593,
       51.466573
      ],
      [
       -0.111395,
       51.466365
      ],
      [
       -0.112267,
       51.466244
      ],
      [
       -0.113279,
       51.466356
      ],
      [
       -0.114207,
       51.464675
      ],
      [
       -0.114492,
       51.464722
      ],
      [
       -0.114958,
       51.464962
      ],
      [
       -0.115684,
       51.464421
      ],
      [
       -0.116854,
       51.464126
      ],
      [
       -0.117271,
       51.463906
      ],
      [
       -0.118658,
       51.464081
      ],
      [
       -0.118833,
       51.464361
      ],
      [
       -0.120621,
       51.464255
      ],
      [
       -0.121014,
       51.4642
      ],
      [
       -0.121515,
       51.464026
      ],
      [
       -0.121315,
       51.463802
      ],
      [
       -0.120866,
       51.463958
      ],
      [
       -0.120398,
       51.464024
      ],
      [
       -0.119777,
       51.463032
      ],
      [
       -0.121135,
       51.462693
      ],
      [
       -0.120637,
       51.461847
      ],
      [
       -0.123516,
       51.460912
      ],
      [
       -0.123433,
       51.460718
      ],
      [
       -0.12454,
       51.460542
      ],
      [
       -0.124238,
       51.459745
      ],
      [
       -0.125582,
       51.459839
      ],
      [
       -0.125574,
       51.460023
      ],
      [
       -0.125986,
       51.459998
      ],
      [
       -0.125991,
       51.459873
      ],
      [
       -0.129123,
       51.459896
      ]
     ]
    ]
   },
   "properties": {
    "id": "LAM-CPZ-21",
    "zone": "Brixton",
    "timing_zone": "Brixton 'B'",
    "code": "B",
    "timings": "Mon-Sat 0830-1730",
    "council_area_m2": 581286,
    "boundary_accuracy": "about 4 m (simplified)",
    "source": "https://gis.lambeth.gov.uk/arcgis/rest/services/LambethCPZTimingZones/MapServer/0",
    "updated": "2026-09-28"
   }
  },
  {
   "type": "Feature",
   "geometry": {
    "type": "Polygon",
    "coordinates": [
     [
      [
       -0.114597,
       51.463038
      ],
      [
       -0.114879,
       51.463086
      ],
      [
       -0.114748,
       51.463401
      ],
      [
       -0.115686,
       51.463575
      ],
      [
       -0.1157,
       51.463804
      ],
      [
       -0.116113,
       51.463847
      ],
      [
       -0.116082,
       51.46334
      ],
      [
       -0.120188,
       51.4625
      ],
      [
       -0.118978,
       51.460557
      ],
      [
       -0.116149,
       51.461283
      ],
      [
       -0.115588,
       51.461141
      ],
      [
       -0.115218,
       51.460083
      ],
      [
       -0.111305,
       51.460861
      ],
      [
       -0.111547,
       51.461195
      ],
      [
       -0.111935,
       51.461141
      ],
      [
       -0.112102,
       51.461605
      ],
      [
       -0.1119,
       51.461632
      ],
      [
       -0.112303,
       51.461956
      ],
      [
       -0.113758,
       51.462739
      ],
      [
       -0.114597,
       51.463038
      ]
     ]
    ]
   },
   "properties": {
    "id": "LAM-CPZ-22",
    "zone": "Brixton",
    "timing_zone": "Brixton 'BI'",
    "code": "B",
    "timings": "Mon-Sat 0830-1830 or 2030",
    "council_area_m2": 133375,
    "boundary_accuracy": "about 4 m (simplified)",
    "source": "https://gis.lambeth.gov.uk/arcgis/rest/services/LambethCPZTimingZones/MapServer/0",
    "updated": "2026-09-28"
   }
  },
  {
   "type": "Feature",
   "geometry": {
    "type": "Polygon",
    "coordinates": [
     [
      [
       -0.137436,
       51.463865
      ],
      [
       -0.137252,
       51.464776
      ],
      [
       -0.137333,
       51.464905
      ],
      [
       -0.137971,
       51.465529
      ],
      [
       -0.138289,
       51.465941
      ],
      [
       -0.139476,
       51.467602
      ],
      [
       -0.13961,
       51.467895
      ],
      [
       -0.140058,
       51.467876
      ],
      [
       -0.140548,
       51.467419
      ],
      [
       -0.140466,
       51.466726
      ],
      [
       -0.141135,
       51.46546
      ],
      [
       -0.141089,
       51.464797
      ],
      [
       -0.140798,
       51.463662
      ],
      [
       -0.138161,
       51.463994
      ],
      [
       -0.137436,
       51.463865
      ]
     ]
    ]
   },
   "properties": {
    "id": "LAM-CPZ-23",
    "zone": "Clapham",
    "timing_zone": "Clapham 'C'",
    "code": "C",
    "timings": "Mon-Fri 0830-1830",
    "council_area_m2": 78914,
    "boundary_accuracy": "about 4 m (simplified)",
    "source": "https://gis.lambeth.gov.uk/arcgis/rest/services/LambethCPZTimingZones/MapServer/0",
    "updated": "2026-09-28"
   }
  },
  {
   "type": "Feature",
   "geometry": {
    "type": "Polygon",
    "coordinates": [
     [
      [
       -0.120065,
       51.453684
      ],
      [
       -0.120918,
       51.452418
      ],
      [
       -0.119986,
       51.452186
      ],
      [
       -0.118865,
       51.451639
      ],
      [
       -0.118257,
       51.451246
      ],
      [
       -0.11791,
       51.451456
      ],
      [
       -0.11836,
       51.451746
      ],
      [
       -0.117867,
       51.452129
      ],
      [
       -0.117829,
       51.452361
      ],
      [
       -0.117899,
       51.452468
      ],
      [
       -0.119092,
       51.453452
      ],
      [
       -0.120065,
       51.453684
      ]
     ]
    ]
   },
   "properties": {
    "id": "LAM-CPZ-24",
    "zone": "Brixton Hill East",
    "timing_zone": "Brixton Hill East 'Q'",
    "code": "Q",
    "timings": "Sun-Fri 0830-1830",
    "council_area_m2": 29533,
    "boundary_accuracy": "about 4 m (simplified)",
    "source": "https://gis.lambeth.gov.uk/arcgis/rest/services/LambethCPZTimingZones/MapServer/0",
    "updated": "2026-09-28"
   }
  },
  {
   "type": "Feature",
   "geometry": {
    "type": "Polygon",
    "coordinates": [
     [
      [
       -0.117652,
       51.449681
      ],
      [
       -0.118012,
       51.449899
      ],
      [
       -0.117446,
       51.450605
      ],
      [
       -0.117874,
       51.450744
      ],
      [
       -0.117958,
       51.450644
      ],
      [
       -0.119719,
       51.451497
      ],
      [
       -0.12116,
       51.452058
      ],
      [
       -0.121454,
       51.451621
      ],
      [
       -0.121524,
       51.451641
      ],
      [
       -0.121581,
       51.45156
      ],
      [
       -0.120476,
       51.451097
      ],
      [
       -0.117716,
       51.449426
      ],
      [
       -0.116751,
       51.448112
      ],
      [
       -0.116195,
       51.44776
      ],
      [
       -0.116098,
       51.447575
      ],
      [
       -0.115541,
       51.447776
      ],
      [
       -0.113345,
       51.447874
      ],
      [
       -0.113335,
       51.447618
      ],
      [
       -0.113254,
       51.447623
      ],
      [
       -0.113232,
       51.448517
      ],
      [
       -0.113156,
       51.448973
      ],
      [
       -0.115911,
       51.44854
      ],
      [
       -0.116708,
       51.449843
      ],
      [
       -0.116905,
       51.449991
      ],
      [
       -0.117044,
       51.450069
      ],
      [
       -0.117652,
       51.449681
      ]
     ]
    ]
   },
   "properties": {
    "id": "LAM-CPZ-25",
    "zone": "Brixton Hill East",
    "timing_zone": "Brixton Hill East 'Q'",
    "code": "Q",
    "timings": "Mon-Fri 1000-1200",
    "council_area_m2": 62291,
    "boundary_accuracy": "about 4 m (simplified)",
    "source": "https://gis.lambeth.gov.uk/arcgis/rest/services/LambethCPZTimingZones/MapServer/0",
    "updated": "2026-09-28"
   }
  },
  {
   "type": "Feature",
   "geometry": {
    "type": "Polygon",
    "coordinates": [
     [
      [
       -0.143102,
       51.470569
      ],
      [
       -0.145083,
       51.469884
      ],
      [
       -0.150287,
       51.467843
      ],
      [
       -0.150319,
       51.46753
      ],
      [
       -0.144838,
       51.469678
      ],
      [
       -0.142941,
       51.470325
      ],
      [
       -0.143102,
       51.470569
      ]
     ]
    ]
   },
   "properties": {
    "id": "LAM-CPZ-26",
    "zone": "Clapham",
    "timing_zone": "Clapham 'C'",
    "code": "C",
    "timings": "Mon-Fri 0930-1730",
    "council_area_m2": 16849,
    "boundary_accuracy": "about 4 m (simplified)",
    "source": "https://gis.lambeth.gov.uk/arcgis/rest/services/LambethCPZTimingZones/MapServer/0",
    "updated": "2026-09-28"
   }
  },
  {
   "type": "Feature",
   "geometry": {
    "type": "Polygon",
    "coordinates": [
     [
      [
       -0.144838,
       51.469678
      ],
      [
       -0.150319,
       51.46753
      ],
      [
       -0.150287,
       51.467843
      ],
      [
       -0.150596,
       51.467736
      ],
      [
       -0.150554,
       51.466316
      ],
      [
       -0.150457,
       51.465967
      ],
      [
       -0.151205,
       51.465855
      ],
      [
       -0.150728,
       51.462933
      ],
      [
       -0.150567,
       51.462592
      ],
      [
       -0.149828,
       51.461571
      ],
      [
       -0.149646,
       51.461158
      ],
      [
       -0.148273,
       51.461189
      ],
      [
       -0.139767,
       51.461028
      ],
      [
       -0.139567,
       51.460909
      ],
      [
       -0.137985,
       51.461931
      ],
      [
       -0.137671,
       51.461739
      ],
      [
       -0.138533,
       51.461187
      ],
      [
       -0.137936,
       51.460847
      ],
      [
       -0.138347,
       51.460566
      ],
      [
       -0.13466,
       51.458431
      ],
      [
       -0.133848,
       51.459064
      ],
      [
       -0.132331,
       51.459395
      ],
      [
       -0.131842,
       51.459466
      ],
      [
       -0.129318,
       51.459565
      ],
      [
       -0.129432,
       51.459885
      ],
      [
       -0.129267,
       51.45989
      ],
      [
       -0.129407,
       51.461662
      ],
      [
       -0.129441,
       51.463995
      ],
      [
       -0.131787,
       51.465127
      ],
      [
       -0.134504,
       51.466655
      ],
      [
       -0.136009,
       51.467708
      ],
      [
       -0.1366,
       51.468188
      ],
      [
       -0.136742,
       51.468382
      ],
      [
       -0.13685,
       51.468354
      ],
      [
       -0.136439,
       51.467706
      ],
      [
       -0.134046,
       51.46589
      ],
      [
       -0.133414,
       51.465006
      ],
      [
       -0.132598,
       51.465301
      ],
      [
       -0.13161,
       51.464946
      ],
      [
       -0.131088,
       51.464687
      ],
      [
       -0.134696,
       51.463184
      ],
      [
       -0.136491,
       51.462601
      ],
      [
       -0.138025,
       51.462195
      ],
      [
       -0.138393,
       51.462717
      ],
      [
       -0.139914,
       51.462135
      ],
      [
       -0.140133,
       51.462352
      ],
      [
       -0.141396,
       51.463109
      ],
      [
       -0.142862,
       51.463893
      ],
      [
       -0.144391,
       51.465714
      ],
      [
       -0.145384,
       51.465348
      ],
      [
       -0.145556,
       51.465582
      ],
      [
       -0.145202,
       51.465713
      ],
      [
       -0.145902,
       51.466568
      ],
      [
       -0.143788,
       51.467414
      ],
      [
       -0.144306,
       51.467937
      ],
      [
       -0.142836,
       51.468556
      ],
      [
       -0.142763,
       51.468448
      ],
      [
       -0.14216,
       51.468603
      ],
      [
       -0.140485,
       51.468487
      ],
      [
       -0.139971,
       51.468515
      ],
      [
       -0.139889,
       51.46814
      ],
      [
       -0.139724,
       51.468147
      ],
      [
       -0.139899,
       51.468776
      ],
      [
       -0.139651,
       51.468803
      ],
      [
       -0.13947,
       51.468155
      ],
      [
       -0.13913,
       51.468164
      ],
      [
       -0.139871,
       51.469444
      ],
      [
       -0.139856,
       51.469586
      ],
      [
       -0.139659,
       51.469764
      ],
      [
       -0.139249,
       51.469893
      ],
      [
       -0.138316,
       51.468203
      ],
      [
       -0.137693,
       51.468269
      ],
      [
       -0.135428,
       51.468871
      ],
      [
       -0.136072,
       51.469663
      ],
      [
       -0.13736,
       51.470823
      ],
      [
       -0.138732,
       51.470275
      ],
      [
       -0.139826,
       51.471316
      ],
      [
       -0.139978,
       51.471261
      ],
      [
       -0.140425,
       51.471534
      ],
      [
       -0.141787,
       51.470889
      ],
      [
       -0.141505,
       51.470656
      ],
      [
       -0.142769,
       51.470054
      ],
      [
       -0.142941,
       51.470325
      ],
      [
       -0.144838,
       51.469678
      ]
     ],
     [
      [
       -0.148429,
       51.462005
      ],
      [
       -0.147865,
       51.46209
      ],
      [
       -0.14821,
       51.463038
      ],
      [
       -0.14857,
       51.46477
      ],
      [
       -0.149353,
       51.466228
      ],
      [
       -0.147211,
       51.466819
      ],
      [
       -0.146788,
       51.466154
      ],
      [
       -0.147395,
       51.465977
      ],
      [
       -0.146091,
       51.463795
      ],
      [
       -0.145288,
       51.46209
      ],
      [
       -0.146795,
       51.461476
      ],
      [
       -0.147558,
       51.461492
      ],
      [
       -0.147774,
       51.461938
      ],
      [
       -0.148373,
       51.461851
      ],
      [
       -0.148429,
       51.462005
      ]
     ],
     [
      [
       -0.135521,
       51.462494
      ],
      [
       -0.134321,
       51.462891
      ],
      [
       -0.131044,
       51.464257
      ],
      [
       -0.130311,
       51.4636
      ],
      [
       -0.129989,
       51.463405
      ],
      [
       -0.129622,
       51.463279
      ],
      [
       -0.129551,
       51.461276
      ],
      [
       -0.129886,
       51.461156
      ],
      [
       -0.130307,
       51.460863
      ],
      [
       -0.130114,
       51.460768
      ],
      [
       -0.129655,
       51.460787
      ],
      [
       -0.129638,
       51.46063
      ],
      [
       -0.129932,
       51.460618
      ],
      [
       -0.129948,
       51.460023
      ],
      [
       -0.1302,
       51.460026
      ],
      [
       -0.130184,
       51.460602
      ],
      [
       -0.130468,
       51.460742
      ],
      [
       -0.131131,
       51.460226
      ],
      [
       -0.13133,
       51.460322
      ],
      [
       -0.131031,
       51.460565
      ],
      [
       -0.131732,
       51.460977
      ],
      [
       -0.131927,
       51.460817
      ],
      [
       -0.131758,
       51.460728
      ],
      [
       -0.132319,
       51.460347
      ],
      [
       -0.132511,
       51.460279
      ],
      [
       -0.132042,
       51.46003
      ],
      [
       -0.13154,
       51.460038
      ],
      [
       -0.131533,
       51.459881
      ],
      [
       -0.132131,
       51.459871
      ],
      [
       -0.132745,
       51.460196
      ],
      [
       -0.133065,
       51.460054
      ],
      [
       -0.133364,
       51.4598
      ],
      [
       -0.133679,
       51.45995
      ],
      [
       -0.133367,
       51.460231
      ],
      [
       -0.132577,
       51.46055
      ],
      [
       -0.13235,
       51.460704
      ],
      [
       -0.133071,
       51.461082
      ],
      [
       -0.134089,
       51.46115
      ],
      [
       -0.134547,
       51.461153
      ],
      [
       -0.135019,
       51.461049
      ],
      [
       -0.135564,
       51.460786
      ],
      [
       -0.135834,
       51.460979
      ],
      [
       -0.135345,
       51.461234
      ],
      [
       -0.134603,
       51.461411
      ],
      [
       -0.133691,
       51.461381
      ],
      [
       -0.134654,
       51.461825
      ],
      [
       -0.134836,
       51.461831
      ],
      [
       -0.135521,
       51.462494
      ]
     ]
    ]
   },
   "properties": {
    "id": "LAM-CPZ-27",
    "zone": "Clapham",
    "timing_zone": "Clapham 'C'",
    "code": "C",
    "timings": "Mon-Fri 0830-1830",
    "council_area_m2": 688304,
    "boundary_accuracy": "about 4 m (simplified)",
    "source": "https://gis.lambeth.gov.uk/arcgis/rest/services/LambethCPZTimingZones/MapServer/0",
    "updated": "2026-09-28"
   }
  },
  {
   "type": "Feature",
   "geometry": {
    "type": "Polygon",
    "coordinates": [
     [
      [
       -0.139144,
       51.469639
      ],
      [
       -0.139249,
       51.469893
      ],
      [
       -0.139778,
       51.469698
      ],
      [
       -0.139871,
       51.469444
      ],
      [
       -0.13913,
       51.468164
      ],
      [
       -0.13947,
       51.468155
      ],
      [
       -0.139651,
       51.468803
      ],
      [
       -0.139899,
       51.468776
      ],
      [
       -0.139724,
       51.468147
      ],
      [
       -0.139889,
       51.46814
      ],
      [
       -0.139971,
       51.468515
      ],
      [
       -0.140485,
       51.468487
      ],
      [
       -0.14216,
       51.468603
      ],
      [
       -0.142763,
       51.468448
      ],
      [
       -0.142836,
       51.468556
      ],
      [
       -0.144306,
       51.467937
      ],
      [
       -0.143788,
       51.467414
      ],
      [
       -0.145902,
       51.466568
      ],
      [
       -0.145202,
       51.465713
      ],
      [
       -0.145556,
       51.465582
      ],
      [
       -0.145384,
       51.465348
      ],
      [
       -0.144391,
       51.465714
      ],
      [
       -0.142862,
       51.463893
      ],
      [
       -0.141396,
       51.463109
      ],
      [
       -0.140133,
       51.462352
      ],
      [
       -0.139914,
       51.462135
      ],
      [
       -0.138393,
       51.462717
      ],
      [
       -0.138025,
       51.462195
      ],
      [
       -0.136491,
       51.462601
      ],
      [
       -0.134696,
       51.463184
      ],
      [
       -0.131088,
       51.464687
      ],
      [
       -0.13161,
       51.464946
      ],
      [
       -0.132598,
       51.465301
      ],
      [
       -0.133414,
       51.465006
      ],
      [
       -0.134046,
       51.46589
      ],
      [
       -0.136439,
       51.467706
      ],
      [
       -0.13685,
       51.468354
      ],
      [
       -0.13527,
       51.468772
      ],
      [
       -0.135363,
       51.468888
      ],
      [
       -0.137693,
       51.468269
      ],
      [
       -0.138316,
       51.468203
      ],
      [
       -0.139144,
       51.469639
      ]
     ],
     [
      [
       -0.140892,
       51.465919
      ],
      [
       -0.140466,
       51.466726
      ],
      [
       -0.140548,
       51.467419
      ],
      [
       -0.140058,
       51.467876
      ],
      [
       -0.13961,
       51.467895
      ],
      [
       -0.139476,
       51.467602
      ],
      [
       -0.138289,
       51.465941
      ],
      [
       -0.137252,
       51.464776
      ],
      [
       -0.137436,
       51.463865
      ],
      [
       -0.138161,
       51.463994
      ],
      [
       -0.140798,
       51.463662
      ],
      [
       -0.141089,
       51.464797
      ],
      [
       -0.141135,
       51.46546
      ],
      [
       -0.140892,
       51.465919
      ]
     ]
    ]
   },
   "properties": {
    "id": "LAM-CPZ-28",
    "zone": "Clapham",
    "timing_zone": "Clapham 'C'",
    "code": "C",
    "timings": "Mon-Fri 0830-1830; Residents Only 0830-2030",
    "council_area_m2": 359866,
    "boundary_accuracy": "about 4 m (simplified)",
    "source": "https://gis.lambeth.gov.uk/arcgis/rest/services/LambethCPZTimingZones/MapServer/0",
    "updated": "2026-09-28"
   }
  }
 ]
}