{
 "type": "FeatureCollection",
 "name": "Lambeth School Streets",
 "features": [
  {
   "type": "Feature",
   "geometry": {
    "type": "MultiLineString",
    "coordinates": [
     [
      [
       -0.12528,
       51.47218
      ],
      [
       -0.12629,
       51.47273
      ]
     ],
     [
      [
       -0.12629,
       51.47273
      ],
      [
       -0.12764,
       51.47349
      ],
      [
       -0.12777,
       51.47355
      ]
     ]
    ]
   },
   "properties": {
    "id": "LAM-SS-01",
    "kind": "SCHOOL STREET",
    "borough": "Lambeth",
    "road": "Studley Road",
    "road_short": "STUDLEY RD",
    "school": "Allen Edwards Primary School",
    "windows": [
     "08:15-09:15",
     "14:45-15:45"
    ],
    "days": "Mon-Fri",
    "term_time_only": true,
    "enforcement": "ANPR camera, PCN code 53J",
    "anchor": [
     -0.12691,
     51.47308
    ],
    "placement": "near school",
    "school_to_street_m": 81,
    "verified_on_ground": false,
    "times_source": "https://www.lambeth.gov.uk/streets-roads-transport/school-streets/school-streets-times-locations",
    "geometry_source": "OpenStreetMap contributors (ODbL)",
    "updated": "2026-09-28"
   }
  },
  {
   "type": "Feature",
   "geometry": {
    "type": "MultiLineString",
    "coordinates": [
     [
      [
       -0.10861,
       51.49088
      ],
      [
       -0.10977,
       51.49145
      ],
      [
       -0.10983,
       51.49145
      ],
      [
       -0.10994,
       51.49142
      ],
      [
       -0.11081,
       51.49177
      ],
      [
       -0.11102,
       51.49179
      ]
     ],
     [
      [
       -0.10806,
       51.49061
      ],
      [
       -0.10861,
       51.49088
      ]
     ]
    ]
   },
   "properties": {
    "id": "LAM-SS-02",
    "kind": "SCHOOL STREET",
    "borough": "Lambeth",
    "road": "Reedworth Street",
    "road_short": "REEDWORTH ST",
    "school": "Archbishop Sumner Church of England Primary School",
    "windows": [
     "08:15-09:15",
     "14:45-15:45"
    ],
    "days": "Mon-Fri",
    "term_time_only": true,
    "enforcement": "ANPR camera, PCN code 53J",
    "anchor": [
     -0.10977,
     51.49145
    ],
    "placement": "near school",
    "school_to_street_m": 27,
    "verified_on_ground": false,
    "times_source": "https://www.lambeth.gov.uk/streets-roads-transport/school-streets/school-streets-times-locations",
    "geometry_source": "OpenStreetMap contributors (ODbL)",
    "updated": "2026-09-28"
   }
  },
  {
   "type": "Feature",
   "geometry": {
    "type": "MultiLineString",
    "coordinates": [
     [
      [
       -0.11387,
       51.48183
      ],
      [
       -0.11368,
       51.48172
      ],
      [
       -0.11347,
       51.48167
      ],
      [
       -0.11297,
       51.48141
      ],
      [
       -0.11282,
       51.48137
      ]
     ],
     [
      [
       -0.11396,
       51.48193
      ],
      [
       -0.11387,
       51.48183
      ]
     ]
    ]
   },
   "properties": {
    "id": "LAM-SS-03",
    "kind": "SCHOOL STREET",
    "borough": "Lambeth",
    "road": "Hanover Gardens",
    "road_short": "HANOVER GDNS",
    "school": "Ashmole Primary School",
    "windows": [
     "08:30-09:30",
     "15:00-16:00"
    ],
    "days": "Mon-Fri",
    "term_time_only": true,
    "enforcement": "ANPR camera, PCN code 53J",
    "anchor": [
     -0.11396,
     51.48193
    ],
    "placement": "near school",
    "school_to_street_m": 82,
    "verified_on_ground": false,
    "times_source": "https://www.lambeth.gov.uk/streets-roads-transport/school-streets/school-streets-times-locations",
    "geometry_source": "OpenStreetMap contributors (ODbL)",
    "updated": "2026-09-28"
   }
  },
  {
   "type": "Feature",
   "geometry": {
    "type": "MultiLineString",
    "coordinates": [
     [
      [
       -0.13886,
       51.45222
      ],
      [
       -0.13892,
       51.45223
      ],
      [
       -0.13914,
       51.45234
      ],
      [
       -0.14076,
       51.45321
      ],
      [
       -0.14098,
       51.45331
      ]
     ]
    ]
   },
   "properties": {
    "id": "LAM-SS-04",
    "kind": "SCHOOL STREET",
    "borough": "Lambeth",
    "road": "Bonneville Gardens",
    "road_short": "BONNEVILLE GDNS",
    "school": "Bonneville Primary School",
    "windows": [
     "08:30-09:30",
     "15:00-16:00"
    ],
    "days": "Mon-Fri",
    "term_time_only": true,
    "enforcement": "ANPR camera, PCN code 53J",
    "anchor": [
     -0.13978,
     51.45268
    ],
    "placement": "near school",
    "school_to_street_m": 33,
    "verified_on_ground": false,
    "times_source": "https://www.lambeth.gov.uk/streets-roads-transport/school-streets/school-streets-times-locations",
    "geometry_source": "OpenStreetMap contributors (ODbL)",
    "updated": "2026-09-28"
   }
  },
  {
   "type": "Feature",
   "geometry": {
    "type": "MultiLineString",
    "coordinates": [
     [
      [
       -0.10975,
       51.47619
      ],
      [
       -0.10865,
       51.47635
      ],
      [
       -0.10843,
       51.47642
      ],
      [
       -0.10814,
       51.47656
      ],
      [
       -0.10798,
       51.47661
      ],
      [
       -0.10671,
       51.47685
      ]
     ],
     [
      [
       -0.11019,
       51.47612
      ],
      [
       -0.10975,
       51.47619
      ]
     ]
    ]
   },
   "properties": {
    "id": "LAM-SS-05",
    "kind": "SCHOOL STREET",
    "borough": "Lambeth",
    "road": "Cancell Road",
    "road_short": "CANCELL RD",
    "school": "Christ Church Primary School Brixton",
    "windows": [
     "08:30-09:30",
     "14:45-15:45"
    ],
    "days": "Mon-Fri",
    "term_time_only": true,
    "enforcement": "ANPR camera, PCN code 53J",
    "anchor": [
     -0.10853,
     51.47639
    ],
    "placement": "near school",
    "school_to_street_m": 32,
    "verified_on_ground": false,
    "times_source": "https://www.lambeth.gov.uk/streets-roads-transport/school-streets/school-streets-times-locations",
    "geometry_source": "OpenStreetMap contributors (ODbL)",
    "updated": "2026-09-28"
   }
  },
  {
   "type": "Feature",
   "geometry": {
    "type": "MultiLineString",
    "coordinates": [
     [
      [
       -0.13716,
       51.46508
      ],
      [
       -0.13755,
       51.46496
      ],
      [
       -0.13825,
       51.46466
      ],
      [
       -0.13867,
       51.46455
      ]
     ]
    ]
   },
   "properties": {
    "id": "LAM-SS-06",
    "kind": "SCHOOL STREET",
    "borough": "Lambeth",
    "road": "Belmont Road",
    "road_short": "BELMONT RD",
    "school": "Clapham Manor Primary School",
    "windows": [
     "08:15-09:15",
     "14:45-15:45"
    ],
    "days": "Mon-Fri",
    "term_time_only": true,
    "enforcement": "ANPR camera, PCN code 53J",
    "anchor": [
     -0.13798,
     51.46478
    ],
    "placement": "near school",
    "school_to_street_m": 51,
    "verified_on_ground": false,
    "times_source": "https://www.lambeth.gov.uk/streets-roads-transport/school-streets/school-streets-times-locations",
    "geometry_source": "OpenStreetMap contributors (ODbL)",
    "updated": "2026-09-28"
   }
  },
  {
   "type": "Feature",
   "geometry": {
    "type": "MultiLineString",
    "coordinates": [
     [
      [
       -0.1241,
       51.43548
      ],
      [
       -0.12388,
       51.43531
      ],
      [
       -0.1232,
       51.43479
      ],
      [
       -0.1227,
       51.43445
      ]
     ]
    ]
   },
   "properties": {
    "id": "LAM-SS-07",
    "kind": "SCHOOL STREET",
    "borough": "Lambeth",
    "road": "Leigham Court Road",
    "road_short": "LEIGHAM CT RD",
    "school": "Dunraven School",
    "windows": [
     "08:15-09:15",
     "14:45-15:45"
    ],
    "days": "Mon-Fri",
    "term_time_only": true,
    "enforcement": "ANPR camera, PCN code 53J",
    "anchor": [
     -0.1227,
     51.43445
    ],
    "placement": "near school",
    "school_to_street_m": 107,
    "verified_on_ground": false,
    "times_source": "https://www.lambeth.gov.uk/streets-roads-transport/school-streets/school-streets-times-locations",
    "geometry_source": "OpenStreetMap contributors (ODbL)",
    "updated": "2026-09-28"
   }
  },
  {
   "type": "Feature",
   "geometry": {
    "type": "MultiLineString",
    "coordinates": [
     [
      [
       -0.0909,
       51.43162
      ],
      [
       -0.09246,
       51.43149
      ]
     ],
     [
      [
       -0.09246,
       51.43149
      ],
      [
       -0.09372,
       51.4314
      ]
     ]
    ]
   },
   "properties": {
    "id": "LAM-SS-08",
    "kind": "SCHOOL STREET",
    "borough": "Lambeth",
    "road": "Carnac Street",
    "road_short": "CARNAC ST",
    "school": "Elm Wood Primary School",
    "windows": [
     "08:15-09:15",
     "15:00-16:00"
    ],
    "days": "Mon-Fri",
    "term_time_only": true,
    "enforcement": "ANPR camera, PCN code 53J",
    "anchor": [
     -0.09246,
     51.43149
    ],
    "placement": "check",
    "school_to_street_m": 0,
    "verified_on_ground": false,
    "times_source": "https://www.lambeth.gov.uk/streets-roads-transport/school-streets/school-streets-times-locations",
    "geometry_source": "OpenStreetMap contributors (ODbL)",
    "updated": "2026-09-28"
   }
  },
  {
   "type": "Feature",
   "geometry": {
    "type": "MultiLineString",
    "coordinates": [
     [
      [
       -0.14184,
       51.41436
      ],
      [
       -0.14128,
       51.41485
      ]
     ],
     [
      [
       -0.14286,
       51.41344
      ],
      [
       -0.14241,
       51.41387
      ]
     ],
     [
      [
       -0.14219,
       51.41405
      ],
      [
       -0.14184,
       51.41436
      ]
     ]
    ]
   },
   "properties": {
    "id": "LAM-SS-09",
    "kind": "SCHOOL STREET",
    "borough": "Lambeth",
    "road": "Granton Road",
    "road_short": "GRANTON RD",
    "school": "Granton Primary School",
    "windows": [
     "08:15-09:15",
     "14:45-15:45"
    ],
    "days": "Mon-Fri",
    "term_time_only": true,
    "enforcement": "ANPR camera, PCN code 53J",
    "anchor": [
     -0.14177,
     51.41442
    ],
    "placement": "near school",
    "school_to_street_m": 68,
    "verified_on_ground": false,
    "times_source": "https://www.lambeth.gov.uk/streets-roads-transport/school-streets/school-streets-times-locations",
    "geometry_source": "OpenStreetMap contributors (ODbL)",
    "updated": "2026-09-28"
   }
  },
  {
   "type": "Feature",
   "geometry": {
    "type": "MultiLineString",
    "coordinates": [
     [
      [
       -0.14278,
       51.4444
      ],
      [
       -0.14215,
       51.44462
      ],
      [
       -0.14162,
       51.44485
      ]
     ],
     [
      [
       -0.1437,
       51.44409
      ],
      [
       -0.14278,
       51.4444
      ]
     ],
     [
      [
       -0.14439,
       51.44385
      ],
      [
       -0.14387,
       51.44403
      ]
     ],
     [
      [
       -0.14464,
       51.4438
      ],
      [
       -0.14439,
       51.44385
      ]
     ],
     [
      [
       -0.14387,
       51.44403
      ],
      [
       -0.1438,
       51.44407
      ],
      [
       -0.1437,
       51.44409
      ]
     ]
    ]
   },
   "properties": {
    "id": "LAM-SS-10",
    "kind": "SCHOOL STREET",
    "borough": "Lambeth",
    "road": "Hydethorpe Road",
    "road_short": "HYDETHORPE RD",
    "school": "Henry Cavendish Primary School (Balham site)",
    "windows": [
     "08:15-09:15",
     "14:45-15:45"
    ],
    "days": "Mon-Fri",
    "term_time_only": true,
    "enforcement": "ANPR camera, PCN code 53J",
    "anchor": [
     -0.14348,
     51.44416
    ],
    "placement": "near school",
    "school_to_street_m": 31,
    "verified_on_ground": false,
    "times_source": "https://www.lambeth.gov.uk/streets-roads-transport/school-streets/school-streets-times-locations",
    "geometry_source": "OpenStreetMap contributors (ODbL)",
    "updated": "2026-09-28"
   }
  },
  {
   "type": "Feature",
   "geometry": {
    "type": "MultiLineString",
    "coordinates": [
     [
      [
       -0.13217,
       51.43817
      ],
      [
       -0.13221,
       51.43815
      ],
      [
       -0.13268,
       51.43805
      ],
      [
       -0.13273,
       51.43802
      ],
      [
       -0.1328,
       51.43787
      ],
      [
       -0.13285,
       51.43784
      ],
      [
       -0.13333,
       51.43773
      ],
      [
       -0.13334,
       51.43771
      ],
      [
       -0.13333,
       51.43767
      ],
      [
       -0.13311,
       51.43731
      ]
     ],
     [
      [
       -0.13398,
       51.43681
      ],
      [
       -0.13314,
       51.43683
      ],
      [
       -0.13301,
       51.43684
      ],
      [
       -0.13285,
       51.43688
      ]
     ],
     [
      [
       -0.13291,
       51.43697
      ],
      [
       -0.13285,
       51.43688
      ]
     ]
    ]
   },
   "properties": {
    "id": "LAM-SS-11",
    "kind": "SCHOOL STREET",
    "borough": "Lambeth",
    "road": "Dingley Lane",
    "road_short": "DINGLEY LN",
    "school": "Henry Cavendish Primary School (Streatham site)",
    "windows": [
     "08:30-09:15",
     "15:00-15:45"
    ],
    "days": "Mon-Fri",
    "term_time_only": true,
    "enforcement": "ANPR camera, PCN code 53J",
    "anchor": [
     -0.13285,
     51.43688
    ],
    "placement": "near school",
    "school_to_street_m": 68,
    "verified_on_ground": false,
    "times_source": "https://www.lambeth.gov.uk/streets-roads-transport/school-streets/school-streets-times-locations",
    "geometry_source": "OpenStreetMap contributors (ODbL)",
    "updated": "2026-09-28"
   }
  },
  {
   "type": "Feature",
   "geometry": {
    "type": "MultiLineString",
    "coordinates": [
     [
      [
       -0.11132,
       51.48457
      ],
      [
       -0.11237,
       51.48409
      ]
     ],
     [
      [
       -0.11055,
       51.48492
      ],
      [
       -0.11132,
       51.48457
      ]
     ],
     [
      [
       -0.11237,
       51.48409
      ],
      [
       -0.11298,
       51.48381
      ]
     ]
    ]
   },
   "properties": {
    "id": "LAM-SS-12",
    "kind": "SCHOOL STREET",
    "borough": "Lambeth",
    "road": "Bowling Green Street",
    "road_short": "BOWLING GREEN ST",
    "school": "Henry Fawcett Primary School",
    "windows": [
     "08:15-09:15",
     "14:45-15:45"
    ],
    "days": "Mon-Fri",
    "term_time_only": true,
    "enforcement": "ANPR camera, PCN code 53J",
    "anchor": [
     -0.1119,
     51.4843
    ],
    "placement": "near school",
    "school_to_street_m": 37,
    "verified_on_ground": false,
    "times_source": "https://www.lambeth.gov.uk/streets-roads-transport/school-streets/school-streets-times-locations",
    "geometry_source": "OpenStreetMap contributors (ODbL)",
    "updated": "2026-09-28"
   }
  },
  {
   "type": "Feature",
   "geometry": {
    "type": "MultiLineString",
    "coordinates": [
     [
      [
       -0.11525,
       51.43532
      ],
      [
       -0.1144,
       51.43563
      ],
      [
       -0.1134,
       51.43601
      ],
      [
       -0.11262,
       51.43632
      ]
     ],
     [
      [
       -0.11631,
       51.4349
      ],
      [
       -0.11525,
       51.43532
      ]
     ]
    ]
   },
   "properties": {
    "id": "LAM-SS-13",
    "kind": "SCHOOL STREET",
    "borough": "Lambeth",
    "road": "Leigham Vale",
    "road_short": "LEIGHAM VALE",
    "school": "Hitherfield Primary School",
    "windows": [
     "08:30-09:30",
     "15:00-16:00"
    ],
    "days": "Mon-Fri",
    "term_time_only": true,
    "enforcement": "ANPR camera, PCN code 53J",
    "anchor": [
     -0.11446,
     51.43561
    ],
    "placement": "near school",
    "school_to_street_m": 79,
    "verified_on_ground": false,
    "times_source": "https://www.lambeth.gov.uk/streets-roads-transport/school-streets/school-streets-times-locations",
    "geometry_source": "OpenStreetMap contributors (ODbL)",
    "updated": "2026-09-28"
   }
  },
  {
   "type": "Feature",
   "geometry": {
    "type": "MultiLineString",
    "coordinates": [
     [
      [
       -0.12051,
       51.4489
      ],
      [
       -0.12004,
       51.44826
      ]
     ],
     [
      [
       -0.12004,
       51.44826
      ],
      [
       -0.11963,
       51.44767
      ]
     ],
     [
      [
       -0.11876,
       51.44642
      ],
      [
       -0.11904,
       51.44684
      ]
     ]
    ]
   },
   "properties": {
    "id": "LAM-SS-14",
    "kind": "SCHOOL STREET",
    "borough": "Lambeth",
    "road": "Upper Tulse Hill",
    "road_short": "UPPER TULSE HILL",
    "school": "Holy Trinity Church of England Primary School",
    "windows": [
     "08:15-09:15",
     "14:45-15:45"
    ],
    "days": "Mon-Fri",
    "term_time_only": true,
    "enforcement": "ANPR camera, PCN code 53J",
    "anchor": [
     -0.11963,
     51.44767
    ],
    "placement": "near school",
    "school_to_street_m": 65,
    "verified_on_ground": false,
    "times_source": "https://www.lambeth.gov.uk/streets-roads-transport/school-streets/school-streets-times-locations",
    "geometry_source": "OpenStreetMap contributors (ODbL)",
    "updated": "2026-09-28"
   }
  },
  {
   "type": "Feature",
   "geometry": {
    "type": "MultiLineString",
    "coordinates": [
     [
      [
       -0.13174,
       51.42003
      ],
      [
       -0.13101,
       51.4195
      ],
      [
       -0.13055,
       51.41918
      ],
      [
       -0.13055,
       51.41915
      ],
      [
       -0.13159,
       51.41856
      ]
     ]
    ]
   },
   "properties": {
    "id": "LAM-SS-15",
    "kind": "SCHOOL STREET",
    "borough": "Lambeth",
    "road": "Northanger Road",
    "road_short": "NORTHANGER RD",
    "school": "Immanuel and St Andrew Church of England Primary School",
    "windows": [
     "08:00-09:00",
     "15:00-16:00"
    ],
    "days": "Mon-Fri",
    "term_time_only": true,
    "enforcement": "ANPR camera, PCN code 53J",
    "anchor": [
     -0.13104,
     51.41888
    ],
    "placement": "near school",
    "school_to_street_m": 38,
    "verified_on_ground": false,
    "times_source": "https://www.lambeth.gov.uk/streets-roads-transport/school-streets/school-streets-times-locations",
    "geometry_source": "OpenStreetMap contributors (ODbL)",
    "updated": "2026-09-28"
   }
  },
  {
   "type": "Feature",
   "geometry": {
    "type": "MultiLineString",
    "coordinates": [
     [
      [
       -0.10178,
       51.45875
      ],
      [
       -0.10161,
       51.45886
      ],
      [
       -0.10157,
       51.45889
      ],
      [
       -0.10145,
       51.4592
      ],
      [
       -0.10131,
       51.45941
      ],
      [
       -0.10117,
       51.45957
      ],
      [
       -0.10089,
       51.45978
      ]
     ],
     [
      [
       -0.10068,
       51.45996
      ],
      [
       -0.10047,
       51.46016
      ],
      [
       -0.10028,
       51.46031
      ],
      [
       -0.10008,
       51.46042
      ],
      [
       -0.09969,
       51.46059
      ]
     ],
     [
      [
       -0.09969,
       51.46059
      ],
      [
       -0.09905,
       51.46079
      ]
     ],
     [
      [
       -0.10089,
       51.45978
      ],
      [
       -0.10068,
       51.45996
      ]
     ]
    ]
   },
   "properties": {
    "id": "LAM-SS-16",
    "kind": "SCHOOL STREET",
    "borough": "Lambeth",
    "road": "Lowden Road",
    "road_short": "LOWDEN RD",
    "school": "Jessop Primary School",
    "windows": [
     "08:15-09:15",
     "15:00-16:00"
    ],
    "days": "Mon-Fri",
    "term_time_only": true,
    "enforcement": "ANPR camera, PCN code 53J",
    "anchor": [
     -0.10072,
     51.45993
    ],
    "placement": "near school",
    "school_to_street_m": 29,
    "verified_on_ground": false,
    "times_source": "https://www.lambeth.gov.uk/streets-roads-transport/school-streets/school-streets-times-locations",
    "geometry_source": "OpenStreetMap contributors (ODbL)",
    "updated": "2026-09-28"
   }
  },
  {
   "type": "Feature",
   "geometry": {
    "type": "MultiLineString",
    "coordinates": [
     [
      [
       -0.1167,
       51.42801
      ],
      [
       -0.11455,
       51.42804
      ]
     ]
    ]
   },
   "properties": {
    "id": "LAM-SS-17",
    "kind": "SCHOOL STREET",
    "borough": "Lambeth",
    "road": "Etherstone Road",
    "road_short": "ETHERSTONE RD",
    "school": "Julian's Primary School (Streatham)",
    "windows": [
     "08:15-09:15",
     "15:00-16:00"
    ],
    "days": "Mon-Fri",
    "term_time_only": true,
    "enforcement": "ANPR camera, PCN code 53J",
    "anchor": [
     -0.11561,
     51.42802
    ],
    "placement": "near school",
    "school_to_street_m": 140,
    "verified_on_ground": false,
    "times_source": "https://www.lambeth.gov.uk/streets-roads-transport/school-streets/school-streets-times-locations",
    "geometry_source": "OpenStreetMap contributors (ODbL)",
    "updated": "2026-09-28"
   }
  },
  {
   "type": "Feature",
   "geometry": {
    "type": "MultiLineString",
    "coordinates": [
     [
      [
       -0.1065,
       51.43103
      ],
      [
       -0.10705,
       51.43105
      ],
      [
       -0.10727,
       51.43102
      ],
      [
       -0.10733,
       51.43099
      ]
     ],
     [
      [
       -0.10432,
       51.43104
      ],
      [
       -0.10493,
       51.43107
      ],
      [
       -0.10518,
       51.43107
      ],
      [
       -0.10583,
       51.43101
      ],
      [
       -0.1065,
       51.43103
      ]
     ]
    ]
   },
   "properties": {
    "id": "LAM-SS-18",
    "kind": "SCHOOL STREET",
    "borough": "Lambeth",
    "road": "Wolfington Road",
    "road_short": "WOLFINGTON RD",
    "school": "Julian's Primary School (West Norwood)",
    "windows": [
     "08:15-09:15",
     "14:45-15:45"
    ],
    "days": "Mon-Fri",
    "term_time_only": true,
    "enforcement": "ANPR camera, PCN code 53J",
    "anchor": [
     -0.10518,
     51.43107
    ],
    "placement": "near school",
    "school_to_street_m": 56,
    "verified_on_ground": false,
    "times_source": "https://www.lambeth.gov.uk/streets-roads-transport/school-streets/school-streets-times-locations",
    "geometry_source": "OpenStreetMap contributors (ODbL)",
    "updated": "2026-09-28"
   }
  },
  {
   "type": "Feature",
   "geometry": {
    "type": "MultiLineString",
    "coordinates": [
     [
      [
       -0.13217,
       51.47101
      ],
      [
       -0.13173,
       51.47069
      ]
     ],
     [
      [
       -0.13173,
       51.47069
      ],
      [
       -0.13109,
       51.47041
      ]
     ],
     [
      [
       -0.13109,
       51.47041
      ],
      [
       -0.13042,
       51.47022
      ]
     ]
    ]
   },
   "properties": {
    "id": "LAM-SS-19",
    "kind": "SCHOOL STREET",
    "borough": "Lambeth",
    "road": "Smedley Street",
    "road_short": "SMEDLEY ST",
    "school": "Larkhall Primary School",
    "windows": [
     "08:15-09:15",
     "15:00-16:00"
    ],
    "days": "Mon-Fri",
    "term_time_only": true,
    "enforcement": "ANPR camera, PCN code 53J",
    "anchor": [
     -0.13042,
     51.47022
    ],
    "placement": "near school",
    "school_to_street_m": 29,
    "verified_on_ground": false,
    "times_source": "https://www.lambeth.gov.uk/streets-roads-transport/school-streets/school-streets-times-locations",
    "geometry_source": "OpenStreetMap contributors (ODbL)",
    "updated": "2026-09-28"
   }
  },
  {
   "type": "Feature",
   "geometry": {
    "type": "MultiLineString",
    "coordinates": [
     [
      [
       -0.10472,
       51.47002
      ],
      [
       -0.10442,
       51.46964
      ],
      [
       -0.1042,
       51.46927
      ],
      [
       -0.10391,
       51.46847
      ],
      [
       -0.10388,
       51.46841
      ]
     ],
     [
      [
       -0.10519,
       51.47059
      ],
      [
       -0.10514,
       51.47048
      ],
      [
       -0.10472,
       51.47002
      ]
     ]
    ]
   },
   "properties": {
    "id": "LAM-SS-20",
    "kind": "SCHOOL STREET",
    "borough": "Lambeth",
    "road": "Minet Road",
    "road_short": "MINET RD",
    "school": "Loughborough Primary School",
    "windows": [
     "08:00-09:00",
     "15:00-16:00"
    ],
    "days": "Mon-Fri",
    "term_time_only": true,
    "enforcement": "ANPR camera, PCN code 53J",
    "anchor": [
     -0.10447,
     51.46971
    ],
    "placement": "near school",
    "school_to_street_m": 46,
    "verified_on_ground": false,
    "times_source": "https://www.lambeth.gov.uk/streets-roads-transport/school-streets/school-streets-times-locations",
    "geometry_source": "OpenStreetMap contributors (ODbL)",
    "updated": "2026-09-28"
   }
  },
  {
   "type": "Feature",
   "geometry": {
    "type": "MultiLineString",
    "coordinates": [
     [
      [
       -0.14838,
       51.46485
      ],
      [
       -0.14813,
       51.46377
      ]
     ],
     [
      [
       -0.14808,
       51.46357
      ],
      [
       -0.1479,
       51.46275
      ],
      [
       -0.14781,
       51.46247
      ],
      [
       -0.14767,
       51.46218
      ]
     ],
     [
      [
       -0.14813,
       51.46377
      ],
      [
       -0.14808,
       51.46357
      ]
     ]
    ]
   },
   "properties": {
    "id": "LAM-SS-21",
    "kind": "SCHOOL STREET",
    "borough": "Lambeth",
    "road": "Victoria Rise",
    "road_short": "VICTORIA RISE",
    "school": "Macaulay Church of England Primary School",
    "windows": [
     "08:15-09:15",
     "14:45-15:45"
    ],
    "days": "Mon-Fri",
    "term_time_only": true,
    "enforcement": "ANPR camera, PCN code 53J",
    "anchor": [
     -0.14807,
     51.46351
    ],
    "placement": "near school",
    "school_to_street_m": 41,
    "verified_on_ground": false,
    "times_source": "https://www.lambeth.gov.uk/streets-roads-transport/school-streets/school-streets-times-locations",
    "geometry_source": "OpenStreetMap contributors (ODbL)",
    "updated": "2026-09-28"
   }
  },
  {
   "type": "Feature",
   "geometry": {
    "type": "MultiLineString",
    "coordinates": [
     [
      [
       -0.08244,
       51.42322
      ],
      [
       -0.08178,
       51.42337
      ],
      [
       -0.08171,
       51.42336
      ],
      [
       -0.08086,
       51.42186
      ],
      [
       -0.08048,
       51.42117
      ],
      [
       -0.08044,
       51.42107
      ]
     ],
     [
      [
       -0.08044,
       51.42107
      ],
      [
       -0.08044,
       51.42099
      ]
     ]
    ]
   },
   "properties": {
    "id": "LAM-SS-22",
    "kind": "SCHOOL STREET",
    "borough": "Lambeth",
    "road": "Woodland Road",
    "road_short": "WOODLAND RD",
    "school": "Paxton Primary School",
    "windows": [
     "08:15-09:15",
     "14:45-15:45"
    ],
    "days": "Mon-Fri",
    "term_time_only": true,
    "enforcement": "ANPR camera, PCN code 53J",
    "anchor": [
     -0.0811,
     51.42228
    ],
    "placement": "near school",
    "school_to_street_m": 39,
    "verified_on_ground": false,
    "times_source": "https://www.lambeth.gov.uk/streets-roads-transport/school-streets/school-streets-times-locations",
    "geometry_source": "OpenStreetMap contributors (ODbL)",
    "updated": "2026-09-28"
   }
  },
  {
   "type": "Feature",
   "geometry": {
    "type": "MultiLineString",
    "coordinates": [
     [
      [
       -0.11483,
       51.47696
      ],
      [
       -0.11458,
       51.47817
      ],
      [
       -0.11459,
       51.47826
      ]
     ],
     [
      [
       -0.11502,
       51.47606
      ],
      [
       -0.11496,
       51.47631
      ]
     ],
     [
      [
       -0.11496,
       51.47631
      ],
      [
       -0.11483,
       51.47696
      ]
     ]
    ]
   },
   "properties": {
    "id": "LAM-SS-23",
    "kind": "SCHOOL STREET",
    "borough": "Lambeth",
    "road": "Hackford Road",
    "road_short": "HACKFORD RD",
    "school": "Reay Primary School",
    "windows": [
     "08:30-09:30",
     "14:45-15:45"
    ],
    "days": "Mon-Fri",
    "term_time_only": true,
    "enforcement": "ANPR camera, PCN code 53J",
    "anchor": [
     -0.11473,
     51.47741
    ],
    "placement": "near school",
    "school_to_street_m": 39,
    "verified_on_ground": false,
    "times_source": "https://www.lambeth.gov.uk/streets-roads-transport/school-streets/school-streets-times-locations",
    "geometry_source": "OpenStreetMap contributors (ODbL)",
    "updated": "2026-09-28"
   }
  },
  {
   "type": "Feature",
   "geometry": {
    "type": "MultiLineString",
    "coordinates": [
     [
      [
       -0.12583,
       51.42457
      ],
      [
       -0.1263,
       51.4246
      ],
      [
       -0.12646,
       51.42465
      ],
      [
       -0.12712,
       51.42491
      ],
      [
       -0.12737,
       51.42496
      ],
      [
       -0.12757,
       51.42497
      ],
      [
       -0.12778,
       51.42496
      ]
     ],
     [
      [
       -0.12778,
       51.42496
      ],
      [
       -0.12958,
       51.42475
      ],
      [
       -0.12987,
       51.42533
      ]
     ]
    ]
   },
   "properties": {
    "id": "LAM-SS-24",
    "kind": "SCHOOL STREET",
    "borough": "Lambeth",
    "road": "Polworth Road",
    "road_short": "POLWORTH RD",
    "school": "St Andrew's Catholic Primary School",
    "windows": [
     "08:15-09:15",
     "15:00-16:00"
    ],
    "days": "Mon-Fri",
    "term_time_only": true,
    "enforcement": "ANPR camera, PCN code 53J",
    "anchor": [
     -0.12791,
     51.42494
    ],
    "placement": "near school",
    "school_to_street_m": 81,
    "verified_on_ground": false,
    "times_source": "https://www.lambeth.gov.uk/streets-roads-transport/school-streets/school-streets-times-locations",
    "geometry_source": "OpenStreetMap contributors (ODbL)",
    "updated": "2026-09-28"
   }
  },
  {
   "type": "Feature",
   "geometry": {
    "type": "MultiLineString",
    "coordinates": [
     [
      [
       -0.1235,
       51.46808
      ],
      [
       -0.12342,
       51.46813
      ],
      [
       -0.12278,
       51.46838
      ],
      [
       -0.12272,
       51.46838
      ],
      [
       -0.12163,
       51.46736
      ]
     ]
    ]
   },
   "properties": {
    "id": "LAM-SS-25",
    "kind": "SCHOOL STREET",
    "borough": "Lambeth",
    "road": "Kay Road",
    "road_short": "KAY RD",
    "school": "St Andrew's Church of England Primary School",
    "windows": [
     "08:15-09:15",
     "14:45-15:45"
    ],
    "days": "Mon-Fri",
    "term_time_only": true,
    "enforcement": "ANPR camera, PCN code 53J",
    "anchor": [
     -0.12272,
     51.46838
    ],
    "placement": "near school",
    "school_to_street_m": 40,
    "verified_on_ground": false,
    "times_source": "https://www.lambeth.gov.uk/streets-roads-transport/school-streets/school-streets-times-locations",
    "geometry_source": "OpenStreetMap contributors (ODbL)",
    "updated": "2026-09-28"
   }
  },
  {
   "type": "Feature",
   "geometry": {
    "type": "MultiLineString",
    "coordinates": [
     [
      [
       -0.11403,
       51.46748
      ],
      [
       -0.11402,
       51.46733
      ],
      [
       -0.11412,
       51.46706
      ],
      [
       -0.11406,
       51.467
      ],
      [
       -0.1138,
       51.46695
      ]
     ]
    ]
   },
   "properties": {
    "id": "LAM-SS-26",
    "kind": "SCHOOL STREET",
    "borough": "Lambeth",
    "road": "Knowle Close",
    "road_short": "KNOWLE CL",
    "school": "St Helen's Catholic Primary School",
    "windows": [
     "08:15-09:15",
     "14:45-15:45"
    ],
    "days": "Mon-Fri",
    "term_time_only": true,
    "enforcement": "ANPR camera, PCN code 53J",
    "anchor": [
     -0.11403,
     51.46731
    ],
    "placement": "near school",
    "school_to_street_m": 35,
    "verified_on_ground": false,
    "times_source": "https://www.lambeth.gov.uk/streets-roads-transport/school-streets/school-streets-times-locations",
    "geometry_source": "OpenStreetMap contributors (ODbL)",
    "updated": "2026-09-28"
   }
  },
  {
   "type": "Feature",
   "geometry": {
    "type": "MultiLineString",
    "coordinates": [
     [
      [
       -0.10693,
       51.46709
      ],
      [
       -0.10789,
       51.46735
      ],
      [
       -0.1081,
       51.4674
      ]
     ],
     [
      [
       -0.10838,
       51.46746
      ],
      [
       -0.10847,
       51.46753
      ],
      [
       -0.10942,
       51.4678
      ]
     ],
     [
      [
       -0.1081,
       51.4674
      ],
      [
       -0.10817,
       51.46741
      ],
      [
       -0.10834,
       51.46739
      ]
     ]
    ]
   },
   "properties": {
    "id": "LAM-SS-27",
    "kind": "SCHOOL STREET",
    "borough": "Lambeth",
    "road": "Angell Road",
    "road_short": "ANGELL RD",
    "school": "St John's Angell Town Church of England Primary School",
    "windows": [
     "08:30-09:30",
     "14:45-15:45"
    ],
    "days": "Mon-Fri",
    "term_time_only": true,
    "enforcement": "ANPR camera, PCN code 53J",
    "anchor": [
     -0.10891,
     51.46765
    ],
    "placement": "near school",
    "school_to_street_m": 42,
    "verified_on_ground": false,
    "times_source": "https://www.lambeth.gov.uk/streets-roads-transport/school-streets/school-streets-times-locations",
    "geometry_source": "OpenStreetMap contributors (ODbL)",
    "updated": "2026-09-28"
   }
  },
  {
   "type": "Feature",
   "geometry": {
    "type": "MultiLineString",
    "coordinates": [
     [
      [
       -0.10223,
       51.42694
      ],
      [
       -0.10067,
       51.42701
      ]
     ],
     [
      [
       -0.10067,
       51.42701
      ],
      [
       -0.10019,
       51.42704
      ],
      [
       -0.09976,
       51.42714
      ]
     ]
    ]
   },
   "properties": {
    "id": "LAM-SS-28",
    "kind": "SCHOOL STREET",
    "borough": "Lambeth",
    "road": "Linton Grove",
    "road_short": "LINTON GR",
    "school": "St Luke's Church of England Primary School",
    "windows": [
     "08:30-09:30",
     "14:45-15:45"
    ],
    "days": "Mon-Fri",
    "term_time_only": true,
    "enforcement": "ANPR camera, PCN code 53J",
    "anchor": [
     -0.10008,
     51.42707
    ],
    "placement": "near school",
    "school_to_street_m": 46,
    "verified_on_ground": false,
    "times_source": "https://www.lambeth.gov.uk/streets-roads-transport/school-streets/school-streets-times-locations",
    "geometry_source": "OpenStreetMap contributors (ODbL)",
    "updated": "2026-09-28"
   }
  },
  {
   "type": "Feature",
   "geometry": {
    "type": "MultiLineString",
    "coordinates": [
     [
      [
       -0.11873,
       51.48485
      ],
      [
       -0.11929,
       51.48509
      ]
     ],
     [
      [
       -0.11704,
       51.48414
      ],
      [
       -0.11743,
       51.48431
      ],
      [
       -0.1184,
       51.48472
      ]
     ],
     [
      [
       -0.11841,
       51.48472
      ],
      [
       -0.11852,
       51.48475
      ],
      [
       -0.11873,
       51.48485
      ]
     ],
     [
      [
       -0.11722,
       51.48416
      ],
      [
       -0.11849,
       51.4847
      ],
      [
       -0.11858,
       51.48472
      ]
     ]
    ]
   },
   "properties": {
    "id": "LAM-SS-29",
    "kind": "SCHOOL STREET",
    "borough": "Lambeth",
    "road": "Harleyford Road",
    "road_short": "HARLEYFORD RD",
    "school": "St Mark's Church of England Primary School",
    "windows": [
     "08:15-09:15",
     "14:45-15:45"
    ],
    "days": "Mon-Fri",
    "term_time_only": true,
    "enforcement": "ANPR camera, PCN code 53J",
    "anchor": [
     -0.11748,
     51.48434
    ],
    "placement": "near school",
    "school_to_street_m": 52,
    "verified_on_ground": false,
    "times_source": "https://www.lambeth.gov.uk/streets-roads-transport/school-streets/school-streets-times-locations",
    "geometry_source": "OpenStreetMap contributors (ODbL)",
    "updated": "2026-09-28"
   }
  },
  {
   "type": "Feature",
   "geometry": {
    "type": "MultiLineString",
    "coordinates": [
     [
      [
       -0.13933,
       51.45969
      ],
      [
       -0.13926,
       51.45966
      ],
      [
       -0.13881,
       51.4595
      ]
     ],
     [
      [
       -0.13658,
       51.45879
      ],
      [
       -0.13601,
       51.45841
      ],
      [
       -0.1358,
       51.45828
      ]
     ],
     [
      [
       -0.13721,
       51.45923
      ],
      [
       -0.13658,
       51.45879
      ]
     ],
     [
      [
       -0.13768,
       51.45946
      ],
      [
       -0.1375,
       51.45941
      ],
      [
       -0.13721,
       51.45923
      ]
     ]
    ]
   },
   "properties": {
    "id": "LAM-SS-30",
    "kind": "SCHOOL STREET",
    "borough": "Lambeth",
    "road": "Crescent Lane",
    "road_short": "CRES LN",
    "school": "St Mary's Catholic Primary School",
    "windows": [
     "08:30-09:30",
     "15:00-16:00"
    ],
    "days": "Mon-Fri",
    "term_time_only": true,
    "enforcement": "ANPR camera, PCN code 53J",
    "anchor": [
     -0.13727,
     51.45927
    ],
    "placement": "near school",
    "school_to_street_m": 42,
    "verified_on_ground": false,
    "times_source": "https://www.lambeth.gov.uk/streets-roads-transport/school-streets/school-streets-times-locations",
    "geometry_source": "OpenStreetMap contributors (ODbL)",
    "updated": "2026-09-28"
   }
  },
  {
   "type": "Feature",
   "geometry": {
    "type": "MultiLineString",
    "coordinates": [
     [
      [
       -0.11528,
       51.46518
      ],
      [
       -0.11547,
       51.46528
      ]
     ],
     [
      [
       -0.11677,
       51.46616
      ],
      [
       -0.11659,
       51.46593
      ]
     ]
    ]
   },
   "properties": {
    "id": "LAM-SS-31",
    "kind": "SCHOOL STREET",
    "borough": "Lambeth",
    "road": "Stockwell Road",
    "road_short": "STOCKWELL RD",
    "school": "Stockwell Primary School",
    "windows": [
     "08:30-09:30",
     "15:00-16:00"
    ],
    "days": "Mon-Fri",
    "term_time_only": true,
    "enforcement": "ANPR camera, PCN code 53J",
    "anchor": [
     -0.11677,
     51.46616
    ],
    "placement": "near school",
    "school_to_street_m": 112,
    "verified_on_ground": false,
    "times_source": "https://www.lambeth.gov.uk/streets-roads-transport/school-streets/school-streets-times-locations",
    "geometry_source": "OpenStreetMap contributors (ODbL)",
    "updated": "2026-09-28"
   }
  },
  {
   "type": "Feature",
   "geometry": {
    "type": "MultiLineString",
    "coordinates": [
     [
      [
       -0.11519,
       51.44016
      ],
      [
       -0.11482,
       51.43995
      ],
      [
       -0.11445,
       51.43978
      ]
     ]
    ]
   },
   "properties": {
    "id": "LAM-SS-32",
    "kind": "SCHOOL STREET",
    "borough": "Lambeth",
    "road": "Palace Road",
    "road_short": "PALACE RD",
    "school": "Streatham Wells Primary School",
    "windows": [
     "08:15-09:15",
     "14:45-15:45"
    ],
    "days": "Mon-Fri",
    "term_time_only": true,
    "enforcement": "ANPR camera, PCN code 53J",
    "anchor": [
     -0.11519,
     51.44016
    ],
    "placement": "near school",
    "school_to_street_m": 73,
    "verified_on_ground": false,
    "times_source": "https://www.lambeth.gov.uk/streets-roads-transport/school-streets/school-streets-times-locations",
    "geometry_source": "OpenStreetMap contributors (ODbL)",
    "updated": "2026-09-28"
   }
  },
  {
   "type": "Feature",
   "geometry": {
    "type": "MultiLineString",
    "coordinates": [
     [
      [
       -0.12758,
       51.45613
      ],
      [
       -0.1269,
       51.4561
      ],
      [
       -0.12542,
       51.45615
      ]
     ]
    ]
   },
   "properties": {
    "id": "LAM-SS-33",
    "kind": "SCHOOL STREET",
    "borough": "Lambeth",
    "road": "Mandrell Road",
    "road_short": "MANDRELL RD",
    "school": "Sudbourne Primary School",
    "windows": [
     "08:15-09:15",
     "15:00-16:00"
    ],
    "days": "Mon-Fri",
    "term_time_only": true,
    "enforcement": "ANPR camera, PCN code 53J",
    "anchor": [
     -0.12542,
     51.45615
    ],
    "placement": "check",
    "school_to_street_m": 458,
    "verified_on_ground": false,
    "times_source": "https://www.lambeth.gov.uk/streets-roads-transport/school-streets/school-streets-times-locations",
    "geometry_source": "OpenStreetMap contributors (ODbL)",
    "updated": "2026-09-28"
   }
  },
  {
   "type": "Feature",
   "geometry": {
    "type": "MultiLineString",
    "coordinates": [
     [
      [
       -0.12272,
       51.42927
      ],
      [
       -0.12129,
       51.42893
      ]
     ],
     [
      [
       -0.12121,
       51.42891
      ],
      [
       -0.1197,
       51.42856
      ]
     ],
     [
      [
       -0.12129,
       51.42893
      ],
      [
       -0.12121,
       51.42891
      ]
     ]
    ]
   },
   "properties": {
    "id": "LAM-SS-34",
    "kind": "SCHOOL STREET",
    "borough": "Lambeth",
    "road": "Sunnyhill Road",
    "road_short": "SUNNYHILL RD",
    "school": "Sunnyhill Primary School",
    "windows": [
     "08:15-09:15",
     "15:00-16:00"
    ],
    "days": "Mon-Fri",
    "term_time_only": true,
    "enforcement": "ANPR camera, PCN code 53J",
    "anchor": [
     -0.1207,
     51.42879
    ],
    "placement": "near school",
    "school_to_street_m": 66,
    "verified_on_ground": false,
    "times_source": "https://www.lambeth.gov.uk/streets-roads-transport/school-streets/school-streets-times-locations",
    "geometry_source": "OpenStreetMap contributors (ODbL)",
    "updated": "2026-09-28"
   }
  },
  {
   "type": "Feature",
   "geometry": {
    "type": "MultiLineString",
    "coordinates": [
     [
      [
       -0.13786,
       51.44371
      ],
      [
       -0.13697,
       51.44185
      ]
     ]
    ]
   },
   "properties": {
    "id": "LAM-SS-35",
    "kind": "SCHOOL STREET",
    "borough": "Lambeth",
    "road": "Telferscot Road",
    "road_short": "TELFERSCOT RD",
    "school": "Telferscot Primary School",
    "windows": [
     "08:15-09:15",
     "15:00-16:00"
    ],
    "days": "Mon-Fri",
    "term_time_only": true,
    "enforcement": "ANPR camera, PCN code 53J",
    "anchor": [
     -0.13746,
     51.44287
    ],
    "placement": "near school",
    "school_to_street_m": 44,
    "verified_on_ground": false,
    "times_source": "https://www.lambeth.gov.uk/streets-roads-transport/school-streets/school-streets-times-locations",
    "geometry_source": "OpenStreetMap contributors (ODbL)",
    "updated": "2026-09-28"
   }
  },
  {
   "type": "Feature",
   "geometry": {
    "type": "MultiLineString",
    "coordinates": [
     [
      [
       -0.09824,
       51.44502
      ],
      [
       -0.09854,
       51.44569
      ],
      [
       -0.09869,
       51.44592
      ],
      [
       -0.09881,
       51.44607
      ]
     ]
    ]
   },
   "properties": {
    "id": "LAM-SS-36",
    "kind": "SCHOOL STREET",
    "borough": "Lambeth",
    "road": "Rosendale Road",
    "road_short": "ROSENDALE RD",
    "school": "The Turney School & Rosendale Primary School",
    "windows": [
     "08:15-09:15",
     "14:45-15:45"
    ],
    "days": "Mon-Fri",
    "term_time_only": true,
    "enforcement": "ANPR camera, PCN code 53J",
    "anchor": [
     -0.09869,
     51.44592
    ],
    "placement": "near school",
    "school_to_street_m": 52,
    "verified_on_ground": false,
    "times_source": "https://www.lambeth.gov.uk/streets-roads-transport/school-streets/school-streets-times-locations",
    "geometry_source": "OpenStreetMap contributors (ODbL)",
    "updated": "2026-09-28"
   }
  },
  {
   "type": "Feature",
   "geometry": {
    "type": "MultiLineString",
    "coordinates": [
     [
      [
       -0.11066,
       51.47293
      ],
      [
       -0.11045,
       51.47334
      ]
     ],
     [
      [
       -0.1105,
       51.47428
      ],
      [
       -0.11045,
       51.47466
      ],
      [
       -0.11033,
       51.4753
      ]
     ],
     [
      [
       -0.11032,
       51.47537
      ],
      [
       -0.11028,
       51.47563
      ]
     ],
     [
      [
       -0.11045,
       51.47356
      ],
      [
       -0.11054,
       51.47404
      ]
     ],
     [
      [
       -0.11045,
       51.47334
      ],
      [
       -0.11043,
       51.47348
      ]
     ]
    ]
   },
   "properties": {
    "id": "LAM-SS-37",
    "kind": "SCHOOL STREET",
    "borough": "Lambeth",
    "road": "Cowley Road",
    "road_short": "COWLEY RD",
    "school": "Van Gogh Primary School (Mostyn site)",
    "windows": [
     "08:30-09:30",
     "14:45-15:45"
    ],
    "days": "Mon-Fri",
    "term_time_only": true,
    "enforcement": "ANPR camera, PCN code 53J",
    "anchor": [
     -0.1105,
     51.47428
    ],
    "placement": "near school",
    "school_to_street_m": 43,
    "verified_on_ground": false,
    "times_source": "https://www.lambeth.gov.uk/streets-roads-transport/school-streets/school-streets-times-locations",
    "geometry_source": "OpenStreetMap contributors (ODbL)",
    "updated": "2026-09-28"
   }
  },
  {
   "type": "Feature",
   "geometry": {
    "type": "MultiLineString",
    "coordinates": [
     [
      [
       -0.1172,
       51.48939
      ],
      [
       -0.11685,
       51.48995
      ]
     ],
     [
      [
       -0.11736,
       51.48914
      ],
      [
       -0.1172,
       51.48939
      ]
     ],
     [
      [
       -0.11738,
       51.48888
      ],
      [
       -0.11742,
       51.48891
      ],
      [
       -0.11743,
       51.48898
      ]
     ]
    ]
   },
   "properties": {
    "id": "LAM-SS-38",
    "kind": "SCHOOL STREET",
    "borough": "Lambeth",
    "road": "Vauxhall Street",
    "road_short": "VAUXHALL ST",
    "school": "Vauxhall Primary School",
    "windows": [
     "08:15-09:15",
     "14:45-15:45"
    ],
    "days": "Mon-Fri",
    "term_time_only": true,
    "enforcement": "ANPR camera, PCN code 53J",
    "anchor": [
     -0.11742,
     51.48891
    ],
    "placement": "near school",
    "school_to_street_m": 39,
    "verified_on_ground": false,
    "times_source": "https://www.lambeth.gov.uk/streets-roads-transport/school-streets/school-streets-times-locations",
    "geometry_source": "OpenStreetMap contributors (ODbL)",
    "updated": "2026-09-28"
   }
  },
  {
   "type": "Feature",
   "geometry": {
    "type": "MultiLineString",
    "coordinates": [
     [
      [
       -0.11394,
       51.49476
      ],
      [
       -0.11248,
       51.49402
      ]
     ],
     [
      [
       -0.11248,
       51.49402
      ],
      [
       -0.1114,
       51.49346
      ],
      [
       -0.11135,
       51.49344
      ]
     ]
    ]
   },
   "properties": {
    "id": "LAM-SS-39",
    "kind": "SCHOOL STREET",
    "borough": "Lambeth",
    "road": "Walnut Tree Walk",
    "road_short": "WALNUT TREE WALK",
    "school": "Walnut Tree Walk Primary School",
    "windows": [
     "08:15-09:15",
     "14:45-15:45"
    ],
    "days": "Mon-Fri",
    "term_time_only": true,
    "enforcement": "ANPR camera, PCN code 53J",
    "anchor": [
     -0.11302,
     51.4943
    ],
    "placement": "near school",
    "school_to_street_m": 49,
    "verified_on_ground": false,
    "times_source": "https://www.lambeth.gov.uk/streets-roads-transport/school-streets/school-streets-times-locations",
    "geometry_source": "OpenStreetMap contributors (ODbL)",
    "updated": "2026-09-28"
   }
  },
  {
   "type": "Feature",
   "geometry": {
    "type": "MultiLineString",
    "coordinates": [
     [
      [
       -0.13714,
       51.41163
      ],
      [
       -0.13713,
       51.41166
      ],
      [
       -0.13677,
       51.4124
      ]
     ],
     [
      [
       -0.13652,
       51.41293
      ],
      [
       -0.13639,
       51.41321
      ],
      [
       -0.13607,
       51.41359
      ]
     ]
    ]
   },
   "properties": {
    "id": "LAM-SS-40",
    "kind": "SCHOOL STREET",
    "borough": "Lambeth",
    "road": "Stockport Road",
    "road_short": "STOCKPORT RD",
    "school": "Woodmansterne School",
    "windows": [
     "08:15-09:15",
     "14:45-15:45"
    ],
    "days": "Mon-Fri",
    "term_time_only": true,
    "enforcement": "ANPR camera, PCN code 53J",
    "anchor": [
     -0.13652,
     51.41293
    ],
    "placement": "near school",
    "school_to_street_m": 119,
    "verified_on_ground": false,
    "times_source": "https://www.lambeth.gov.uk/streets-roads-transport/school-streets/school-streets-times-locations",
    "geometry_source": "OpenStreetMap contributors (ODbL)",
    "updated": "2026-09-28"
   }
  },
  {
   "type": "Feature",
   "geometry": {
    "type": "MultiLineString",
    "coordinates": [
     [
      [
       -0.12315,
       51.48348
      ],
      [
       -0.12319,
       51.48328
      ],
      [
       -0.12328,
       51.48313
      ],
      [
       -0.12341,
       51.48301
      ],
      [
       -0.1237,
       51.48278
      ]
     ]
    ]
   },
   "properties": {
    "id": "LAM-SS-41",
    "kind": "SCHOOL STREET",
    "borough": "Lambeth",
    "road": "South Lambeth Road",
    "road_short": "SOUTH LAMBETH RD",
    "school": "Wyvil Primary School",
    "windows": [
     "08:15-09:15",
     "14:45-15:45"
    ],
    "days": "Mon-Fri",
    "term_time_only": true,
    "enforcement": "ANPR camera, PCN code 53J",
    "anchor": [
     -0.1237,
     51.48278
    ],
    "placement": "check",
    "school_to_street_m": 208,
    "verified_on_ground": false,
    "times_source": "https://www.lambeth.gov.uk/streets-roads-transport/school-streets/school-streets-times-locations",
    "geometry_source": "OpenStreetMap contributors (ODbL)",
    "updated": "2026-09-28"
   }
  },
  {
   "type": "Feature",
   "geometry": {
    "type": "MultiLineString",
    "coordinates": [
     [
      [
       -0.13069,
       51.45587
      ],
      [
       -0.13045,
       51.45554
      ]
     ],
     [
      [
       -0.13049,
       51.45537
      ],
      [
       -0.1306,
       51.45495
      ]
     ],
     [
      [
       -0.1306,
       51.45495
      ],
      [
       -0.13068,
       51.45466
      ],
      [
       -0.13067,
       51.4546
      ],
      [
       -0.13059,
       51.45453
      ]
     ],
     [
      [
       -0.13045,
       51.45554
      ],
      [
       -0.13045,
       51.45548
      ],
      [
       -0.13049,
       51.45537
      ]
     ]
    ]
   },
   "properties": {
    "id": "LAM-SS-42",
    "kind": "SCHOOL STREET",
    "borough": "Lambeth",
    "road": "Park Hill",
    "road_short": "PARK HILL",
    "school": "Iqra, Glenbrook & Harris Academy Clapham",
    "windows": [
     "08:00-09:15",
     "14:45-15:45"
    ],
    "days": "Mon-Fri",
    "term_time_only": true,
    "enforcement": "ANPR camera, PCN code 53J",
    "anchor": [
     -0.13059,
     51.45453
    ],
    "placement": "check",
    "school_to_street_m": 232,
    "verified_on_ground": false,
    "times_source": "https://www.lambeth.gov.uk/streets-roads-transport/school-streets/school-streets-times-locations",
    "geometry_source": "OpenStreetMap contributors (ODbL)",
    "updated": "2026-09-28"
   }
  },
  {
   "type": "Feature",
   "geometry": {
    "type": "MultiLineString",
    "coordinates": [
     [
      [
       -0.14485,
       51.44832
      ],
      [
       -0.14314,
       51.44809
      ],
      [
       -0.14245,
       51.44804
      ],
      [
       -0.14072,
       51.44798
      ],
      [
       -0.14062,
       51.44798
      ]
     ]
    ]
   },
   "properties": {
    "id": "LAM-SS-43",
    "kind": "SCHOOL STREET",
    "borough": "Lambeth",
    "road": "Atkins Road",
    "road_short": "ATKINS RD",
    "school": "St Bernadette & La Retraite",
    "windows": [
     "08:15-09:15",
     "14:45-15:45"
    ],
    "days": "Mon-Fri",
    "term_time_only": true,
    "enforcement": "ANPR camera, PCN code 53J",
    "anchor": [
     -0.14278,
     51.44807
    ],
    "placement": "near school",
    "school_to_street_m": 124,
    "verified_on_ground": false,
    "times_source": "https://www.lambeth.gov.uk/streets-roads-transport/school-streets/school-streets-times-locations",
    "geometry_source": "OpenStreetMap contributors (ODbL)",
    "updated": "2026-09-28"
   }
  }
 ]
}