{"type": "FeatureCollection", "crs": {"type": "name", "properties": {"name": "EPSG:4326"}}, "features": [{"type": "Feature", "id": 3842, "geometry": {"type": "Polygon", "coordinates": [[[-0.113687, 51.465956], [-0.113622, 51.466097], [-0.113573, 51.466043], [-0.113619, 51.465942], [-0.113687, 51.465956]]]}, "properties": {"OBJECTID": 3842, "STREET_NAME": "BRIXTON RD / STOCKWELL PARK WALK (WEST BOX)", "START_LOCATION": null, "FINISH_LOCATION": null, "SIDE_OF_ROAD": null, "Shape__Area": 69.63782501220703, "DATA_LAST_UPDATED": 1790121600000}}, {"type": "Feature", "id": 3750, "geometry": {"type": "Polygon", "coordinates": [[[-0.123133, 51.484568], [-0.12309, 51.484626], [-0.122994, 51.484492], [-0.12304, 51.484435], [-0.123133, 51.484568]]]}, "properties": {"OBJECTID": 3750, "STREET_NAME": "STH LAMBETH RD / PARRY ST (NORTH BOX)", "START_LOCATION": null, "FINISH_LOCATION": null, "SIDE_OF_ROAD": null, "Shape__Area": 87.80367279052734, "DATA_LAST_UPDATED": 1790121600000}}, {"type": "Feature", "id": 3527, "geometry": {"type": "Polygon", "coordinates": [[[-0.112333, 51.482127], [-0.11229, 51.482068], [-0.112424, 51.481916], [-0.112492, 51.481942], [-0.112333, 51.482127]]]}, "properties": {"OBJECTID": 3527, "STREET_NAME": "KENNINGTON PARK RD / HARLEYFORD ST / CAMBERWELL NEW RD (WEST BOX)", "START_LOCATION": null, "FINISH_LOCATION": null, "SIDE_OF_ROAD": null, "Shape__Area": 120.43441772460938, "DATA_LAST_UPDATED": 1790121600000}}, {"type": "Feature", "id": 3564, "geometry": {"type": "Polygon", "coordinates": [[[-0.123318, 51.484419], [-0.12322, 51.484313], [-0.123453, 51.484299], [-0.123465, 51.484301], [-0.12348, 51.484302], [-0.123477, 51.484416], [-0.123318, 51.484419]]]}, "properties": {"OBJECTID": 3564, "STREET_NAME": "STH LAMBETH RD / PARRY ST (SOUTH BOX)", "START_LOCATION": null, "FINISH_LOCATION": null, "SIDE_OF_ROAD": null, "Shape__Area": 185.68578338623047, "DATA_LAST_UPDATED": 1790121600000}}, {"type": "Feature", "id": 3767, "geometry": {"type": "Polygon", "coordinates": [[[-0.086851, 51.473518], [-0.086676, 51.473527], [-0.086603, 51.47346], [-0.086779, 51.473457], [-0.086851, 51.473518]]]}, "properties": {"OBJECTID": 3767, "STREET_NAME": "PECKHAM RD / CAMBERWELL CHURCH ST / BENHILL RD / WILSON RD", "START_LOCATION": null, "FINISH_LOCATION": null, "SIDE_OF_ROAD": null, "Shape__Area": 90.61267852783203, "DATA_LAST_UPDATED": 1790121600000}}, {"type": "Feature", "id": 3470, "geometry": {"type": "Polygon", "coordinates": [[[-0.094479, 51.474529], [-0.094434, 51.474582], [-0.094311, 51.474529], [-0.094364, 51.474484], [-0.094479, 51.474529]]]}, "properties": {"OBJECTID": 3470, "STREET_NAME": "CAMBERWELL NEW RD / WARNER RD / CAMBERWELL PSG", "START_LOCATION": null, "FINISH_LOCATION": null, "SIDE_OF_ROAD": null, "Shape__Area": 63.57856750488281, "DATA_LAST_UPDATED": 1790121600000}}, {"type": "Feature", "id": 3355, "geometry": {"type": "Polygon", "coordinates": [[[-0.111557, 51.482673], [-0.111641, 51.48257], [-0.111721, 51.482643], [-0.111613, 51.482756], [-0.111557, 51.482673]]]}, "properties": {"OBJECTID": 3355, "STREET_NAME": "KENNINGTON PARK ROAD", "START_LOCATION": "from southern most point of traffic island at Junction of Kennington Park Road and the Northbound Brixton Road", "FINISH_LOCATION": "South side of Brixton Road north bound where it meets Kennington park Raad", "SIDE_OF_ROAD": "east", "Shape__Area": 114.51725769042969, "DATA_LAST_UPDATED": 1790121600000}}, {"type": "Feature", "id": 3521, "geometry": {"type": "Polygon", "coordinates": [[[-0.116031, 51.500703], [-0.115878, 51.50083], [-0.115767, 51.500835], [-0.115871, 51.500655], [-0.116031, 51.500703]]]}, "properties": {"OBJECTID": 3521, "STREET_NAME": "WESTMINSTER BRIDGE RD / ADDINGTON ST", "START_LOCATION": null, "FINISH_LOCATION": null, "SIDE_OF_ROAD": null, "Shape__Area": 182.7787094116211, "DATA_LAST_UPDATED": 1790121600000}}, {"type": "Feature", "id": 3802, "geometry": {"type": "Polygon", "coordinates": [[[-0.111166, 51.481516], [-0.111218, 51.481594], [-0.110656, 51.481348], [-0.110664, 51.481299], [-0.111166, 51.481516]]]}, "properties": {"OBJECTID": 3802, "STREET_NAME": "BRIXTON RD / CAMBERWELL NEW RD (NORTH BOX)", "START_LOCATION": null, "FINISH_LOCATION": null, "SIDE_OF_ROAD": null, "Shape__Area": 223.03429412841797, "DATA_LAST_UPDATED": 1790121600000}}, {"type": "Feature", "id": 3696, "geometry": {"type": "Polygon", "coordinates": [[[-0.11344, 51.466023], [-0.113516, 51.465857], [-0.113514, 51.465861], [-0.113594, 51.465878], [-0.113516, 51.466039], [-0.11344, 51.466023]]]}, "properties": {"OBJECTID": 3696, "STREET_NAME": "BRIXTON RD / STOCKWELL PARK WALK (EAST BOX)", "START_LOCATION": null, "FINISH_LOCATION": null, "SIDE_OF_ROAD": null, "Shape__Area": 107.09768676757812, "DATA_LAST_UPDATED": 1790121600000}}, {"type": "Feature", "id": 3541, "geometry": {"type": "Polygon", "coordinates": [[[-0.130743, 51.424666], [-0.130567, 51.424676], [-0.130498, 51.424549], [-0.130672, 51.424513], [-0.130742, 51.424665], [-0.130743, 51.424666]]]}, "properties": {"OBJECTID": 3541, "STREET_NAME": "STREATHAM HIGH ROAD", "START_LOCATION": "southern kerb of service road access to store car parking", "FINISH_LOCATION": "northern kerb of service road access to store car parking", "SIDE_OF_ROAD": "west", "Shape__Area": 200.8015365600586, "DATA_LAST_UPDATED": 1790121600000}}, {"type": "Feature", "id": 3690, "geometry": {"type": "Polygon", "coordinates": [[[-0.1015, 51.47744], [-0.101604, 51.477482], [-0.1015, 51.477558], [-0.10134, 51.477502], [-0.1015, 51.47744]]]}, "properties": {"OBJECTID": 3690, "STREET_NAME": "WYNDHAM RD / CAMBERWELL NEW RD / LOTHIAN RD", "START_LOCATION": null, "FINISH_LOCATION": null, "SIDE_OF_ROAD": null, "Shape__Area": 120.13693237304688, "DATA_LAST_UPDATED": 1790121600000}}, {"type": "Feature", "id": 3799, "geometry": {"type": "Polygon", "coordinates": [[[-0.146091, 51.497206], [-0.146161, 51.497108], [-0.146295, 51.497077], [-0.146414, 51.497251], [-0.146287, 51.497283], [-0.146091, 51.497206]]]}, "properties": {"OBJECTID": 3799, "STREET_NAME": "GROSVENOR GDNS / EBURY ST / BEESTON PL", "START_LOCATION": null, "FINISH_LOCATION": null, "SIDE_OF_ROAD": null, "Shape__Area": 300.33953857421875, "DATA_LAST_UPDATED": 1790121600000}}, {"type": "Feature", "id": 3421, "geometry": {"type": "Polygon", "coordinates": [[[-0.108477, 51.480331], [-0.108401, 51.48041], [-0.108319, 51.480382], [-0.108403, 51.480299], [-0.108476, 51.48033], [-0.108477, 51.480331]]]}, "properties": {"OBJECTID": 3421, "STREET_NAME": "CAMBERWELL NEW RD / BOLTON CRES / FOXLEY RD", "START_LOCATION": null, "FINISH_LOCATION": null, "SIDE_OF_ROAD": null, "Shape__Area": 68.11654663085938, "DATA_LAST_UPDATED": 1790121600000}}, {"type": "Feature", "id": 3567, "geometry": {"type": "Polygon", "coordinates": [[[-0.10354, 51.478285], [-0.103699, 51.478353], [-0.103597, 51.478414], [-0.103456, 51.478357], [-0.10354, 51.478285]]]}, "properties": {"OBJECTID": 3567, "STREET_NAME": "WARHAM ST / VASSALL RD / CAMBERWELL NEW RD", "START_LOCATION": null, "FINISH_LOCATION": null, "SIDE_OF_ROAD": null, "Shape__Area": 121.92062377929688, "DATA_LAST_UPDATED": 1790121600000}}, {"type": "Feature", "id": 3664, "geometry": {"type": "Polygon", "coordinates": [[[-0.124231, 51.486328], [-0.124215, 51.486345], [-0.124209, 51.486367], [-0.124196, 51.486387], [-0.124182, 51.486403], [-0.124169, 51.486417], [-0.124156, 51.486429], [-0.123962, 51.48636], [-0.123998, 51.486344], [-0.124029, 51.486321], [-0.124053, 51.486292], [-0.124231, 51.486328]]]}, "properties": {"OBJECTID": 3664, "STREET_NAME": "WANDSWORTH RD / BRIDGEFOOT / ALBERT EMBANKMENT", "START_LOCATION": null, "FINISH_LOCATION": null, "SIDE_OF_ROAD": null, "Shape__Area": 152.94171905517578, "DATA_LAST_UPDATED": 1790121600000}}, {"type": "Feature", "id": 3687, "geometry": {"type": "Polygon", "coordinates": [[[-0.116972, 51.499789], [-0.116965, 51.499875], [-0.116836, 51.499864], [-0.116852, 51.499779], [-0.116972, 51.499789]]]}, "properties": {"OBJECTID": 3687, "STREET_NAME": "LAMBETH PALACE ROAD / ST THOMAS HOSPITAL EMERGENCY EXIT", "START_LOCATION": null, "FINISH_LOCATION": null, "SIDE_OF_ROAD": null, "Shape__Area": 83.07803344726562, "DATA_LAST_UPDATED": 1790121600000}}, {"type": "Feature", "id": 3401, "geometry": {"type": "Polygon", "coordinates": [[[-0.130834, 51.489404], [-0.130691, 51.489336], [-0.13078, 51.489249], [-0.130931, 51.489326], [-0.130834, 51.489404]]]}, "properties": {"OBJECTID": 3401, "STREET_NAME": "VAUXHALL BRIDGE ROAD", "START_LOCATION": "j/w John Islip St", "FINISH_LOCATION": null, "SIDE_OF_ROAD": "north", "Shape__Area": 145.85189056396484, "DATA_LAST_UPDATED": 1790121600000}}, {"type": "Feature", "id": 3756, "geometry": {"type": "Polygon", "coordinates": [[[-0.146984, 51.498051], [-0.147083, 51.498153], [-0.146981, 51.498175], [-0.146895, 51.498067], [-0.146977, 51.498047], [-0.14698, 51.49805], [-0.146984, 51.498051]]]}, "properties": {"OBJECTID": 3756, "STREET_NAME": "GROSVENOR PL / HOBART PL / LOWER GROSVENOR PL / GROSVENOR GDNS", "START_LOCATION": null, "FINISH_LOCATION": null, "SIDE_OF_ROAD": null, "Shape__Area": 93.27161407470703, "DATA_LAST_UPDATED": 1790121600000}}, {"type": "Feature", "id": 3836, "geometry": {"type": "Polygon", "coordinates": [[[-0.124585, 51.445332], [-0.124402, 51.445282], [-0.124469, 51.44502], [-0.124644, 51.445136], [-0.124585, 51.445332]]]}, "properties": {"OBJECTID": 3836, "STREET_NAME": "BRIXTON HILL / CHRISTCHURCH RD / STREATHAM PLACE / STREATHAM HILL (WEST BOX)", "START_LOCATION": null, "FINISH_LOCATION": null, "SIDE_OF_ROAD": null, "Shape__Area": 357.9772491455078, "DATA_LAST_UPDATED": 1790121600000}}, {"type": "Feature", "id": 3693, "geometry": {"type": "Polygon", "coordinates": [[[-0.106312, 51.441031], [-0.10614, 51.441049], [-0.106175, 51.440975], [-0.106312, 51.440977], [-0.106312, 51.441031]]]}, "properties": {"OBJECTID": 3693, "STREET_NAME": "THURLOW PARK RD / NORWOOD RD / TULSE HILL (NORTH BOX)", "START_LOCATION": null, "FINISH_LOCATION": null, "SIDE_OF_ROAD": null, "Shape__Area": 75.02191162109375, "DATA_LAST_UPDATED": 1790121600000}}, {"type": "Feature", "id": 3730, "geometry": {"type": "Polygon", "coordinates": [[[-0.147832, 51.451217], [-0.147686, 51.451173], [-0.147678, 51.451062], [-0.147827, 51.451132], [-0.147833, 51.451217], [-0.147832, 51.451217]]]}, "properties": {"OBJECTID": 3730, "STREET_NAME": "BALHAM HILL", "START_LOCATION": "Balham Hill northern junction with Cathles Road and Malwood Road", "FINISH_LOCATION": "Balham Hill southern junction with Cathles Road and Malwood Road", "SIDE_OF_ROAD": "both", "Shape__Area": 108.9419174194336, "DATA_LAST_UPDATED": 1790121600000}}, {"type": "Feature", "id": 3550, "geometry": {"type": "Polygon", "coordinates": [[[-0.116923, 51.498999], [-0.116966, 51.499005], [-0.116936, 51.49911], [-0.116892, 51.499104], [-0.116923, 51.498999]]]}, "properties": {"OBJECTID": 3550, "STREET_NAME": "LAMBETH PALACE ROAD / ST THOMAS HOSPITAL EMERGENCY EXIT", "START_LOCATION": null, "FINISH_LOCATION": null, "SIDE_OF_ROAD": null, "Shape__Area": 36.65525817871094, "DATA_LAST_UPDATED": 1790121600000}}, {"type": "Feature", "id": 3485, "geometry": {"type": "Polygon", "coordinates": [[[-0.082109, 51.496654], [-0.081858, 51.49675], [-0.081575, 51.49675], [-0.081764, 51.496653], [-0.08211, 51.496653], [-0.082109, 51.496654]]]}, "properties": {"OBJECTID": 3485, "STREET_NAME": "TOWER BRIDGE ROAD", "START_LOCATION": "Tower Bridge Road / Bermondsey Street / Grange Road", "FINISH_LOCATION": null, "SIDE_OF_ROAD": "both", "Shape__Area": 235.9311752319336, "DATA_LAST_UPDATED": 1790121600000}}, {"type": "Feature", "id": 3679, "geometry": {"type": "Polygon", "coordinates": [[[-0.129261, 51.432034], [-0.129177, 51.432145], [-0.129089, 51.432129], [-0.129163, 51.432029], [-0.129261, 51.432034]]]}, "properties": {"OBJECTID": 3679, "STREET_NAME": "STREATHAM HIGH RD / PENDENNIS RD / BECMEAD AVE", "START_LOCATION": null, "FINISH_LOCATION": null, "SIDE_OF_ROAD": null, "Shape__Area": 82.52738952636719, "DATA_LAST_UPDATED": 1790121600000}}, {"type": "Feature", "id": 3602, "geometry": {"type": "Polygon", "coordinates": [[[-0.125438, 51.48433], [-0.125244, 51.484449], [-0.125034, 51.484436], [-0.125184, 51.484314], [-0.125438, 51.48433]]]}, "properties": {"OBJECTID": 3602, "STREET_NAME": "PARRY ST / 20M WEST OF BONDWAY", "START_LOCATION": null, "FINISH_LOCATION": null, "SIDE_OF_ROAD": null, "Shape__Area": 235.23666381835938, "DATA_LAST_UPDATED": 1790121600000}}, {"type": "Feature", "id": 3608, "geometry": {"type": "Polygon", "coordinates": [[[-0.131642, 51.48959], [-0.13157, 51.489651], [-0.131425, 51.489579], [-0.131549, 51.489549], [-0.131642, 51.48959]]]}, "properties": {"OBJECTID": 3608, "STREET_NAME": "VAUXHALL BRIDGE RD / DRUMMOND GATE / BESSBOROUGH GDNS", "START_LOCATION": null, "FINISH_LOCATION": null, "SIDE_OF_ROAD": null, "Shape__Area": 84.29045104980469, "DATA_LAST_UPDATED": 1790121600000}}, {"type": "Feature", "id": 3725, "geometry": {"type": "Polygon", "coordinates": [[[-0.131145, 51.427415], [-0.131056, 51.427412], [-0.131058, 51.427369], [-0.131184, 51.427373], [-0.131185, 51.427415], [-0.131145, 51.427415]]]}, "properties": {"OBJECTID": 3725, "STREET_NAME": "STREATHAM HIGH ROAD", "START_LOCATION": "STANTHORPE ROAD", "FINISH_LOCATION": null, "SIDE_OF_ROAD": "both", "Shape__Area": 41.941139221191406, "DATA_LAST_UPDATED": 1790121600000}}, {"type": "Feature", "id": 3671, "geometry": {"type": "Polygon", "coordinates": [[[-0.123492, 51.44927], [-0.123413, 51.449363], [-0.123273, 51.44932], [-0.123363, 51.449229], [-0.123492, 51.44927]]]}, "properties": {"OBJECTID": 3671, "STREET_NAME": "BRIXTON HILL / NEW PARK RD", "START_LOCATION": null, "FINISH_LOCATION": null, "SIDE_OF_ROAD": null, "Shape__Area": 122.82728576660156, "DATA_LAST_UPDATED": 1790121600000}}, {"type": "Feature", "id": 3433, "geometry": {"type": "Polygon", "coordinates": [[[-0.129145, 51.421875], [-0.129048, 51.421885], [-0.128946, 51.421689], [-0.129057, 51.421666], [-0.129145, 51.421875]]]}, "properties": {"OBJECTID": 3433, "STREET_NAME": "STREATHAM HIGH RD / GREYHOUND LANE", "START_LOCATION": null, "FINISH_LOCATION": null, "SIDE_OF_ROAD": null, "Shape__Area": 175.67960357666016, "DATA_LAST_UPDATED": 1790121600000}}, {"type": "Feature", "id": 3596, "geometry": {"type": "Polygon", "coordinates": [[[-0.127665, 51.484811], [-0.127516, 51.48479], [-0.127516, 51.484692], [-0.127645, 51.484711], [-0.127665, 51.484811]]]}, "properties": {"OBJECTID": 3596, "STREET_NAME": "NINE ELMS LN / ST GEORGES WHARF EXIT", "START_LOCATION": null, "FINISH_LOCATION": null, "SIDE_OF_ROAD": null, "Shape__Area": 104.64020538330078, "DATA_LAST_UPDATED": 1790121600000}}, {"type": "Feature", "id": 3837, "geometry": {"type": "Polygon", "coordinates": [[[-0.143909, 51.498133], [-0.143912, 51.498134], [-0.143729, 51.498093], [-0.143801, 51.49801], [-0.143975, 51.498061], [-0.143909, 51.498133]]]}, "properties": {"OBJECTID": 3837, "STREET_NAME": "BUCKINGHAM PALACE ROAD", "START_LOCATION": "JW BRESSENDEN PLACE", "FINISH_LOCATION": null, "SIDE_OF_ROAD": "centre", "Shape__Area": 131.3441925048828, "DATA_LAST_UPDATED": 1790121600000}}, {"type": "Feature", "id": 3482, "geometry": {"type": "Polygon", "coordinates": [[[-0.114175, 51.464694], [-0.114116, 51.464829], [-0.114019, 51.464846], [-0.114091, 51.464681], [-0.114175, 51.464694]]]}, "properties": {"OBJECTID": 3482, "STREET_NAME": "STOCKWELL RD / BRIXTON RD / GRESHAM RD (EAST BOX)", "START_LOCATION": null, "FINISH_LOCATION": null, "SIDE_OF_ROAD": null, "Shape__Area": 103.24617767333984, "DATA_LAST_UPDATED": 1790121600000}}, {"type": "Feature", "id": 3576, "geometry": {"type": "Polygon", "coordinates": [[[-0.114653, 51.463853], [-0.114585, 51.463848], [-0.114603, 51.463799], [-0.114672, 51.463809], [-0.114654, 51.46385], [-0.114653, 51.463853]]]}, "properties": {"OBJECTID": 3576, "STREET_NAME": "FERNDALE ROAD", "START_LOCATION": "FERNDALE ROAD", "FINISH_LOCATION": null, "SIDE_OF_ROAD": "west", "Shape__Area": 25.635536193847656, "DATA_LAST_UPDATED": 1790121600000}}, {"type": "Feature", "id": 3419, "geometry": {"type": "Polygon", "coordinates": [[[-0.129591, 51.430484], [-0.129595, 51.430474], [-0.12959, 51.430465], [-0.129632, 51.430432], [-0.12964, 51.430432], [-0.129654, 51.430427], [-0.129666, 51.43042], [-0.129715, 51.430437], [-0.129651, 51.430503], [-0.129591, 51.430484]]]}, "properties": {"OBJECTID": 3419, "STREET_NAME": "STREATHAM HIGH RD / SHRUBBERY  RD", "START_LOCATION": null, "FINISH_LOCATION": null, "SIDE_OF_ROAD": null, "Shape__Area": 44.350364685058594, "DATA_LAST_UPDATED": 1790121600000}}, {"type": "Feature", "id": 3548, "geometry": {"type": "Polygon", "coordinates": [[[-0.089349, 51.441083], [-0.089333, 51.441112], [-0.089197, 51.441097], [-0.089209, 51.441064], [-0.089349, 51.441083]]]}, "properties": {"OBJECTID": 3548, "STREET_NAME": "THURLOW PARK RD / GALLERY RD", "START_LOCATION": null, "FINISH_LOCATION": null, "SIDE_OF_ROAD": null, "Shape__Area": 34.85688781738281, "DATA_LAST_UPDATED": 1790121600000}}, {"type": "Feature", "id": 3848, "geometry": {"type": "Polygon", "coordinates": [[[-0.114814, 51.463324], [-0.114732, 51.46331], [-0.11476, 51.463245], [-0.114764, 51.463246], [-0.114767, 51.463245], [-0.114773, 51.46324], [-0.114776, 51.463235], [-0.114845, 51.463244], [-0.114814, 51.463324]]]}, "properties": {"OBJECTID": 3848, "STREET_NAME": "BRIXTON RD / ATLANTIC RD", "START_LOCATION": null, "FINISH_LOCATION": null, "SIDE_OF_ROAD": null, "Shape__Area": 51.35282897949219, "DATA_LAST_UPDATED": 1790121600000}}, {"type": "Feature", "id": 3350, "geometry": {"type": "Polygon", "coordinates": [[[-0.148136, 51.476366], [-0.14836, 51.476438], [-0.148129, 51.476493], [-0.148047, 51.476418], [-0.148076, 51.476407], [-0.148112, 51.476393], [-0.148136, 51.476366]]]}, "properties": {"OBJECTID": 3350, "STREET_NAME": "BATTERSEA PARK RD / QUEENSTOWN RD (NORTH BOX)", "START_LOCATION": null, "FINISH_LOCATION": null, "SIDE_OF_ROAD": null, "Shape__Area": 149.63465881347656, "DATA_LAST_UPDATED": 1790121600000}}, {"type": "Feature", "id": 3387, "geometry": {"type": "Polygon", "coordinates": [[[-0.126538, 51.484419], [-0.126483, 51.484481], [-0.126254, 51.484458], [-0.126334, 51.484396], [-0.126538, 51.484419]]]}, "properties": {"OBJECTID": 3387, "STREET_NAME": "WANDSWORTH RD / PARRY ST / NINE ELMS LANE (SOUTH BOX)", "START_LOCATION": null, "FINISH_LOCATION": null, "SIDE_OF_ROAD": null, "Shape__Area": 115.73263549804688, "DATA_LAST_UPDATED": 1790121600000}}, {"type": "Feature", "id": 3648, "geometry": {"type": "Polygon", "coordinates": [[[-0.127142, 51.483638], [-0.127022, 51.483719], [-0.127043, 51.48363], [-0.12705, 51.483607], [-0.127094, 51.48361], [-0.127142, 51.483638]]]}, "properties": {"OBJECTID": 3648, "STREET_NAME": "WANDSWORTH RD / NEW COVENT GARDEN MARKET EXIT", "START_LOCATION": null, "FINISH_LOCATION": null, "SIDE_OF_ROAD": null, "Shape__Area": 47.63313293457031, "DATA_LAST_UPDATED": 1790121600000}}, {"type": "Feature", "id": 3785, "geometry": {"type": "Polygon", "coordinates": [[[-0.07391, 51.486947], [-0.073912, 51.486946], [-0.073908, 51.48695], [-0.073682, 51.486861], [-0.07373, 51.486808], [-0.073955, 51.486902], [-0.07391, 51.486947]]]}, "properties": {"OBJECTID": 3785, "STREET_NAME": "OLD KENT ROAD", "START_LOCATION": "Outside Fire Station", "FINISH_LOCATION": null, "SIDE_OF_ROAD": "north-east", "Shape__Area": 121.3443603515625, "DATA_LAST_UPDATED": 1790121600000}}, {"type": "Feature", "id": 3393, "geometry": {"type": "Polygon", "coordinates": [[[-0.088491, 51.440878], [-0.088373, 51.440875], [-0.088367, 51.440843], [-0.088492, 51.440844], [-0.088491, 51.440878]]]}, "properties": {"OBJECTID": 3393, "STREET_NAME": "THURLOW PARK RD / ALLEYN PARK / DULWICH COMMON", "START_LOCATION": null, "FINISH_LOCATION": null, "SIDE_OF_ROAD": null, "Shape__Area": 30.769493103027344, "DATA_LAST_UPDATED": 1790121600000}}, {"type": "Feature", "id": 3583, "geometry": {"type": "Polygon", "coordinates": [[[-0.083063, 51.473803], [-0.082921, 51.473806], [-0.082919, 51.473766], [-0.083063, 51.473764], [-0.083063, 51.473803]]]}, "properties": {"OBJECTID": 3583, "STREET_NAME": "PECKHAM RD / HAVIL ST", "START_LOCATION": null, "FINISH_LOCATION": null, "SIDE_OF_ROAD": null, "Shape__Area": 43.6668701171875, "DATA_LAST_UPDATED": 1790121600000}}, {"type": "Feature", "id": 3769, "geometry": {"type": "Polygon", "coordinates": [[[-0.116269, 51.465739], [-0.116192, 51.4657], [-0.116187, 51.465655], [-0.116259, 51.465691], [-0.116269, 51.465739]]]}, "properties": {"OBJECTID": 3769, "STREET_NAME": "STOCKWELL RD/ STOCKWELL PARK WALK (SOUTH BOX)", "START_LOCATION": null, "FINISH_LOCATION": null, "SIDE_OF_ROAD": null, "Shape__Area": 24.650131225585938, "DATA_LAST_UPDATED": 1790121600000}}, {"type": "Feature", "id": 3823, "geometry": {"type": "MultiPolygon", "coordinates": [[[[-0.159598, 51.43562], [-0.159597, 51.435619], [-0.159598, 51.435616], [-0.159598, 51.43562]]], [[[-0.159597, 51.435619], [-0.159596, 51.435663], [-0.159428, 51.435709], [-0.159385, 51.435672], [-0.159596, 51.435616], [-0.159597, 51.435619]]]]}, "properties": {"OBJECTID": 3823, "STREET_NAME": "BALHAM HIGH ROAD", "START_LOCATION": "Tooting Bec Road", "FINISH_LOCATION": "Trinity Road", "SIDE_OF_ROAD": "both", "Shape__Area": 70.38029479980469, "DATA_LAST_UPDATED": 1790121600000}}, {"type": "Feature", "id": 3800, "geometry": {"type": "Polygon", "coordinates": [[[-0.129499, 51.422947], [-0.129632, 51.423118], [-0.129456, 51.423145], [-0.129383, 51.422972], [-0.129499, 51.422947]]]}, "properties": {"OBJECTID": 3800, "STREET_NAME": "STREATHAM HIGH RD / STREATHAM COMMON NORTH SIDE", "START_LOCATION": null, "FINISH_LOCATION": null, "SIDE_OF_ROAD": null, "Shape__Area": 215.05890655517578, "DATA_LAST_UPDATED": 1790121600000}}, {"type": "Feature", "id": 3623, "geometry": {"type": "Polygon", "coordinates": [[[-0.147471, 51.45299], [-0.147383, 51.453012], [-0.14746, 51.45287], [-0.147534, 51.452881], [-0.147471, 51.45299]]]}, "properties": {"OBJECTID": 3623, "STREET_NAME": "BALHAM HILL / NIGHTINGALE LANE / CLAPHAM COMMON (WEST BOX)", "START_LOCATION": null, "FINISH_LOCATION": null, "SIDE_OF_ROAD": null, "Shape__Area": 75.37667846679688, "DATA_LAST_UPDATED": 1790121600000}}, {"type": "Feature", "id": 3514, "geometry": {"type": "Polygon", "coordinates": [[[-0.111361, 51.486951], [-0.111359, 51.486951], [-0.111348, 51.487062], [-0.111258, 51.487029], [-0.111268, 51.486914], [-0.111361, 51.486951]]]}, "properties": {"OBJECTID": 3514, "STREET_NAME": "KENNINGTON ROAD", "START_LOCATION": "north kerb kennington road", "FINISH_LOCATION": "south kerb kennington road", "SIDE_OF_ROAD": "east", "Shape__Area": 82.51359558105469, "DATA_LAST_UPDATED": 1790121600000}}, {"type": "Feature", "id": 3468, "geometry": {"type": "Polygon", "coordinates": [[[-0.103114, 51.491228], [-0.103114, 51.491229], [-0.103242, 51.491224], [-0.103185, 51.491309], [-0.103085, 51.491311], [-0.103114, 51.491228]]]}, "properties": {"OBJECTID": 3468, "STREET_NAME": "KENNINGTON PARK ROAD", "START_LOCATION": "At Junction of Kennington Park Road, Kennington Lane", "FINISH_LOCATION": "and Newington Butts", "SIDE_OF_ROAD": "north-west", "Shape__Area": 72.81123352050781, "DATA_LAST_UPDATED": 1790121600000}}, {"type": "Feature", "id": 3806, "geometry": {"type": "Polygon", "coordinates": [[[-0.106315, 51.440878], [-0.10631, 51.440921], [-0.106167, 51.440916], [-0.10608, 51.440875], [-0.106097, 51.440854], [-0.1061, 51.440841], [-0.106315, 51.440878]]]}, "properties": {"OBJECTID": 3806, "STREET_NAME": "THURLOW PARK RD / NORWOOD RD / TULSE HILL (SOUTH BOX)", "START_LOCATION": null, "FINISH_LOCATION": null, "SIDE_OF_ROAD": null, "Shape__Area": 89.18060302734375, "DATA_LAST_UPDATED": 1790121600000}}, {"type": "Feature", "id": 3600, "geometry": {"type": "Polygon", "coordinates": [[[-0.073989, 51.486831], [-0.07402, 51.486903], [-0.07379, 51.486804], [-0.073826, 51.486768], [-0.073989, 51.486831]]]}, "properties": {"OBJECTID": 3600, "STREET_NAME": "OLD KENT RD / TRAFALGAR AVE", "START_LOCATION": null, "FINISH_LOCATION": null, "SIDE_OF_ROAD": null, "Shape__Area": 82.91673278808594, "DATA_LAST_UPDATED": 1790121600000}}, {"type": "Feature", "id": 3743, "geometry": {"type": "Polygon", "coordinates": [[[-0.132802, 51.490138], [-0.132635, 51.490251], [-0.132516, 51.490189], [-0.132674, 51.490071], [-0.132802, 51.490138]]]}, "properties": {"OBJECTID": 3743, "STREET_NAME": "VAUXHALL BRIDGE RD / RAMPAYNE ST", "START_LOCATION": null, "FINISH_LOCATION": null, "SIDE_OF_ROAD": null, "Shape__Area": 191.90069580078125, "DATA_LAST_UPDATED": 1790121600000}}, {"type": "Feature", "id": 3388, "geometry": {"type": "Polygon", "coordinates": [[[-0.070269, 51.498718], [-0.070198, 51.498788], [-0.069994, 51.498712], [-0.070063, 51.498637], [-0.070269, 51.498718]]]}, "properties": {"OBJECTID": 3388, "STREET_NAME": "JAMAICA ROAD", "START_LOCATION": "Junction of Abbey Street and Jamaica Road", "FINISH_LOCATION": null, "SIDE_OF_ROAD": "south", "Shape__Area": 157.6139678955078, "DATA_LAST_UPDATED": 1790121600000}}, {"type": "Feature", "id": 3786, "geometry": {"type": "MultiPolygon", "coordinates": [[[[-0.128291, 51.419901], [-0.128288, 51.419901], [-0.128288, 51.419899], [-0.128291, 51.419901]]], [[[-0.128314, 51.420003], [-0.128222, 51.42001], [-0.1282, 51.419909], [-0.12829, 51.419902], [-0.128292, 51.41991], [-0.128314, 51.420003]]]]}, "properties": {"OBJECTID": 3786, "STREET_NAME": "STREATHAM HIGH ROAD", "START_LOCATION": ".", "FINISH_LOCATION": ".", "SIDE_OF_ROAD": "east", "Shape__Area": 72.42355346679688, "DATA_LAST_UPDATED": 1790121600000}}, {"type": "Feature", "id": 3534, "geometry": {"type": "Polygon", "coordinates": [[[-0.116885, 51.499623], [-0.117004, 51.499629], [-0.116985, 51.499716], [-0.116864, 51.499706], [-0.116885, 51.499623]]]}, "properties": {"OBJECTID": 3534, "STREET_NAME": "LAMBETH PALACE RD / ST THOMAS HOSPITAL EMERGENCY EXIT", "START_LOCATION": null, "FINISH_LOCATION": null, "SIDE_OF_ROAD": null, "Shape__Area": 80.00843048095703, "DATA_LAST_UPDATED": 1790121600000}}, {"type": "Feature", "id": 3626, "geometry": {"type": "Polygon", "coordinates": [[[-0.129466, 51.465398], [-0.1296, 51.465246], [-0.129704, 51.465281], [-0.129577, 51.465431], [-0.129466, 51.465398]]]}, "properties": {"OBJECTID": 3626, "STREET_NAME": "CLAPHAM HIGH ST / CLAPHAM RD / BEDFORD RD / LANDOR RD", "START_LOCATION": null, "FINISH_LOCATION": null, "SIDE_OF_ROAD": null, "Shape__Area": 159.9294891357422, "DATA_LAST_UPDATED": 1790121600000}}, {"type": "Feature", "id": 3697, "geometry": {"type": "Polygon", "coordinates": [[[-0.124544, 51.486396], [-0.124736, 51.486441], [-0.124893, 51.486529], [-0.124725, 51.486512], [-0.124544, 51.486396]]]}, "properties": {"OBJECTID": 3697, "STREET_NAME": "BRIDGEFOOT ON VAUXHALL BRIDGE", "START_LOCATION": null, "FINISH_LOCATION": null, "SIDE_OF_ROAD": null, "Shape__Area": 101.40587615966797, "DATA_LAST_UPDATED": 1790121600000}}, {"type": "Feature", "id": 3680, "geometry": {"type": "Polygon", "coordinates": [[[-0.121916, 51.485944], [-0.121926, 51.48593], [-0.122086, 51.485971], [-0.122048, 51.486044], [-0.122047, 51.486058], [-0.121868, 51.486106], [-0.121781, 51.486013], [-0.121832, 51.485997], [-0.121869, 51.485972], [-0.121916, 51.485944]]]}, "properties": {"OBJECTID": 3680, "STREET_NAME": "STH LAMBETH RD / HARLEYFORD RD / KENNINGTON LANE", "START_LOCATION": null, "FINISH_LOCATION": null, "SIDE_OF_ROAD": null, "Shape__Area": 239.70278930664062, "DATA_LAST_UPDATED": 1790121600000}}, {"type": "Feature", "id": 3580, "geometry": {"type": "Polygon", "coordinates": [[[-0.144991, 51.496683], [-0.144868, 51.496778], [-0.144737, 51.496765], [-0.14479, 51.496663], [-0.144991, 51.496683]]]}, "properties": {"OBJECTID": 3580, "STREET_NAME": "VICTORIA ST / BUCKINGHAM PALACE RD / GROSVENOR GDNS", "START_LOCATION": null, "FINISH_LOCATION": null, "SIDE_OF_ROAD": null, "Shape__Area": 137.45651245117188, "DATA_LAST_UPDATED": 1790121600000}}, {"type": "Feature", "id": 3611, "geometry": {"type": "Polygon", "coordinates": [[[-0.083367, 51.473706], [-0.083373, 51.473741], [-0.083178, 51.47375], [-0.083173, 51.473713], [-0.083367, 51.473706]]]}, "properties": {"OBJECTID": 3611, "STREET_NAME": "PECKHAM RD / VESTRY RD", "START_LOCATION": null, "FINISH_LOCATION": null, "SIDE_OF_ROAD": null, "Shape__Area": 54.47803497314453, "DATA_LAST_UPDATED": 1790121600000}}, {"type": "Feature", "id": 3666, "geometry": {"type": "Polygon", "coordinates": [[[-0.145214, 51.496166], [-0.145161, 51.496238], [-0.145159, 51.496238], [-0.145052, 51.496202], [-0.145141, 51.496086], [-0.145203, 51.496103], [-0.145166, 51.496154], [-0.145214, 51.496166]]]}, "properties": {"OBJECTID": 3666, "STREET_NAME": "BUCKINGHAM PALACE ROAD", "START_LOCATION": "BPR", "FINISH_LOCATION": "j/w terminus place", "SIDE_OF_ROAD": "south & west", "Shape__Area": 101.43492889404297, "DATA_LAST_UPDATED": 1790121600000}}, {"type": "Feature", "id": 3783, "geometry": {"type": "Polygon", "coordinates": [[[-0.111104, 51.481458], [-0.110685, 51.481273], [-0.110685, 51.481223], [-0.111048, 51.481388], [-0.111104, 51.481458]]]}, "properties": {"OBJECTID": 3783, "STREET_NAME": "BRIXTON RD / CAMBERWELL NEW RD (SOUTH BOX)", "START_LOCATION": null, "FINISH_LOCATION": null, "SIDE_OF_ROAD": null, "Shape__Area": 144.1954574584961, "DATA_LAST_UPDATED": 1790121600000}}, {"type": "Feature", "id": 3428, "geometry": {"type": "Polygon", "coordinates": [[[-0.105948, 51.488309], [-0.105855, 51.488277], [-0.105912, 51.488225], [-0.106001, 51.488259], [-0.105948, 51.488309]]]}, "properties": {"OBJECTID": 3428, "STREET_NAME": "KENNINGTON PARK RD / BRAGANZA ST", "START_LOCATION": null, "FINISH_LOCATION": null, "SIDE_OF_ROAD": null, "Shape__Area": 49.82640838623047, "DATA_LAST_UPDATED": 1790121600000}}, {"type": "Feature", "id": 3826, "geometry": {"type": "Polygon", "coordinates": [[[-0.143002, 51.496511], [-0.142984, 51.496642], [-0.142867, 51.496628], [-0.142861, 51.496524], [-0.143002, 51.496511]]]}, "properties": {"OBJECTID": 3826, "STREET_NAME": "VICTORIA ST / ALLINGTON ST / WILTON RD", "START_LOCATION": null, "FINISH_LOCATION": null, "SIDE_OF_ROAD": null, "Shape__Area": 116.61088562011719, "DATA_LAST_UPDATED": 1790121600000}}, {"type": "Feature", "id": 3634, "geometry": {"type": "Polygon", "coordinates": [[[-0.117454, 51.498372], [-0.117562, 51.498285], [-0.117652, 51.498328], [-0.117542, 51.498415], [-0.117454, 51.498372]]]}, "properties": {"OBJECTID": 3634, "STREET_NAME": "LAMBETH PALACE ROAD / ST THOMAS HOSPITAL EMERGENCY EXIT", "START_LOCATION": null, "FINISH_LOCATION": null, "SIDE_OF_ROAD": null, "Shape__Area": 96.0606918334961, "DATA_LAST_UPDATED": 1790121600000}}, {"type": "Feature", "id": 3448, "geometry": {"type": "Polygon", "coordinates": [[[-0.093198, 51.474161], [-0.092835, 51.474171], [-0.092831, 51.474116], [-0.093196, 51.474108], [-0.093198, 51.474161]]]}, "properties": {"OBJECTID": 3448, "STREET_NAME": "CAMBERWELL NEW RD / CAMBERWELL RD / CAMBERWELL CHURCH ST / DENMARK HILL (NORTH BOX)", "START_LOCATION": null, "FINISH_LOCATION": null, "SIDE_OF_ROAD": null, "Shape__Area": 151.53150939941406, "DATA_LAST_UPDATED": 1790121600000}}, {"type": "Feature", "id": 3840, "geometry": {"type": "Polygon", "coordinates": [[[-0.123138, 51.486303], [-0.123165, 51.486195], [-0.123215, 51.486199], [-0.123265, 51.486218], [-0.123307, 51.486241], [-0.123327, 51.486255], [-0.123224, 51.486333], [-0.123212, 51.486328], [-0.123178, 51.486314], [-0.123138, 51.486303]]]}, "properties": {"OBJECTID": 3840, "STREET_NAME": "KENNINGTON LANE / ALBERT EMBANKMENT", "START_LOCATION": null, "FINISH_LOCATION": null, "SIDE_OF_ROAD": null, "Shape__Area": 122.7485580444336, "DATA_LAST_UPDATED": 1790121600000}}, {"type": "Feature", "id": 3558, "geometry": {"type": "Polygon", "coordinates": [[[-0.151208, 51.44519], [-0.151325, 51.445049], [-0.151388, 51.445076], [-0.151264, 51.445215], [-0.151208, 51.44519]]]}, "properties": {"OBJECTID": 3558, "STREET_NAME": "BALHAM HIGH ROAD", "START_LOCATION": "BALHAM HIGH ROAD", "FINISH_LOCATION": null, "SIDE_OF_ROAD": "all", "Shape__Area": 88.59713745117188, "DATA_LAST_UPDATED": 1790121600000}}, {"type": "Feature", "id": 3798, "geometry": {"type": "Polygon", "coordinates": [[[-0.11248, 51.476761], [-0.112469, 51.476824], [-0.112406, 51.476819], [-0.112421, 51.476755], [-0.11248, 51.476761]]]}, "properties": {"OBJECTID": 3798, "STREET_NAME": "BRIXTON RD / CALDWELL ST / VASSALL RD", "START_LOCATION": null, "FINISH_LOCATION": null, "SIDE_OF_ROAD": null, "Shape__Area": 30.4468994140625, "DATA_LAST_UPDATED": 1790121600000}}, {"type": "Feature", "id": 3752, "geometry": {"type": "Polygon", "coordinates": [[[-0.111541, 51.48275], [-0.111543, 51.482753], [-0.111541, 51.482755], [-0.111538, 51.482753], [-0.111541, 51.48275]]]}, "properties": {"OBJECTID": 3752, "STREET_NAME": "KENNINGTON PARK RD / BRIXTON RD", "START_LOCATION": null, "FINISH_LOCATION": null, "SIDE_OF_ROAD": null, "Shape__Area": 0.0845489501953125, "DATA_LAST_UPDATED": 1790121600000}}, {"type": "Feature", "id": 3506, "geometry": {"type": "Polygon", "coordinates": [[[-0.139182, 51.461048], [-0.139244, 51.461163], [-0.139158, 51.46118], [-0.139106, 51.461076], [-0.139182, 51.461048]]]}, "properties": {"OBJECTID": 3506, "STREET_NAME": "CLAPHAM COMMON SOUTH SIDE / LONG RD / THE PAVEMENT", "START_LOCATION": null, "FINISH_LOCATION": null, "SIDE_OF_ROAD": null, "Shape__Area": 79.19279479980469, "DATA_LAST_UPDATED": 1790121600000}}, {"type": "Feature", "id": 3775, "geometry": {"type": "Polygon", "coordinates": [[[-0.108334, 51.485961], [-0.108261, 51.485935], [-0.108386, 51.485804], [-0.108463, 51.485835], [-0.108334, 51.485961]]]}, "properties": {"OBJECTID": 3775, "STREET_NAME": "KENNINGTON PARK ROAD", "START_LOCATION": "Kennington Park Road  Jcn Kennington Park Place", "FINISH_LOCATION": null, "SIDE_OF_ROAD": "south & east", "Shape__Area": 102.38450622558594, "DATA_LAST_UPDATED": 1790121600000}}, {"type": "Feature", "id": 3612, "geometry": {"type": "Polygon", "coordinates": [[[-0.147306, 51.45397], [-0.147304, 51.453978], [-0.147292, 51.454037], [-0.147127, 51.454047], [-0.147125, 51.453976], [-0.147306, 51.45397]]]}, "properties": {"OBJECTID": 3612, "STREET_NAME": "THE AVENUE / CLAPHAM COMMON SOUTH SIDE", "START_LOCATION": null, "FINISH_LOCATION": null, "SIDE_OF_ROAD": null, "Shape__Area": 91.58631896972656, "DATA_LAST_UPDATED": 1790121600000}}, {"type": "Feature", "id": 3815, "geometry": {"type": "Polygon", "coordinates": [[[-0.114167, 51.464824], [-0.114204, 51.464766], [-0.114243, 51.464648], [-0.114321, 51.46466], [-0.114251, 51.464814], [-0.114167, 51.464824]]]}, "properties": {"OBJECTID": 3815, "STREET_NAME": "STOCKWELL RD / BRIXTON RD / GRESHAM RD (WEST BOX)", "START_LOCATION": null, "FINISH_LOCATION": null, "SIDE_OF_ROAD": null, "Shape__Area": 96.35687255859375, "DATA_LAST_UPDATED": 1790121600000}}, {"type": "Feature", "id": 3366, "geometry": {"type": "Polygon", "coordinates": [[[-0.145478, 51.477769], [-0.145242, 51.47794], [-0.145182, 51.47791], [-0.145421, 51.477736], [-0.145478, 51.477769]]]}, "properties": {"OBJECTID": 3366, "STREET_NAME": "BATTERSEA PARK RD / PRINCE OF WALES DRIVE / HAVELOCK TERRACE", "START_LOCATION": null, "FINISH_LOCATION": null, "SIDE_OF_ROAD": null, "Shape__Area": 135.3691177368164, "DATA_LAST_UPDATED": 1790121600000}}, {"type": "Feature", "id": 3420, "geometry": {"type": "Polygon", "coordinates": [[[-0.148418, 51.476394], [-0.148384, 51.476409], [-0.148153, 51.476342], [-0.148355, 51.476264], [-0.148418, 51.476394]]]}, "properties": {"OBJECTID": 3420, "STREET_NAME": "BATTERSEA PARK RD / QUEENSTOWN RD (SOUTH BOX)", "START_LOCATION": null, "FINISH_LOCATION": null, "SIDE_OF_ROAD": null, "Shape__Area": 141.57103729248047, "DATA_LAST_UPDATED": 1790121600000}}, {"type": "Feature", "id": 3712, "geometry": {"type": "Polygon", "coordinates": [[[-0.116113, 51.465893], [-0.116207, 51.465887], [-0.116158, 51.465942], [-0.116066, 51.46595], [-0.116113, 51.465893]]]}, "properties": {"OBJECTID": 3712, "STREET_NAME": "STOCKWELL RD/ STOCKWELL PARK WALK (NORTH BOX)", "START_LOCATION": null, "FINISH_LOCATION": null, "SIDE_OF_ROAD": null, "Shape__Area": 37.38177490234375, "DATA_LAST_UPDATED": 1790121600000}}, {"type": "Feature", "id": 3380, "geometry": {"type": "Polygon", "coordinates": [[[-0.071251, 51.473373], [-0.071238, 51.473404], [-0.071024, 51.473381], [-0.071032, 51.473356], [-0.071251, 51.473373]]]}, "properties": {"OBJECTID": 3380, "STREET_NAME": "BELLENDEN ROAD", "START_LOCATION": "PECKHAM HIGH STREET", "FINISH_LOCATION": null, "SIDE_OF_ROAD": "south", "Shape__Area": 47.66984558105469, "DATA_LAST_UPDATED": 1790121600000}}, {"type": "Feature", "id": 3784, "geometry": {"type": "Polygon", "coordinates": [[[-0.130873, 51.489302], [-0.130867, 51.4893], [-0.130873, 51.489296], [-0.130878, 51.489298], [-0.130873, 51.489302]]]}, "properties": {"OBJECTID": 3784, "STREET_NAME": "JOHN ISLIP ST / BESSBOROUGH GDNS", "START_LOCATION": null, "FINISH_LOCATION": null, "SIDE_OF_ROAD": null, "Shape__Area": 0.245208740234375, "DATA_LAST_UPDATED": 1790121600000}}, {"type": "Feature", "id": 3778, "geometry": {"type": "Polygon", "coordinates": [[[-0.14733, 51.452989], [-0.147255, 51.452976], [-0.147296, 51.452902], [-0.147372, 51.452916], [-0.14733, 51.452989]]]}, "properties": {"OBJECTID": 3778, "STREET_NAME": "BALHAM HILL / NIGHTINGALE LANE / CLAPHAM COMMON (EAST BOX)", "START_LOCATION": null, "FINISH_LOCATION": null, "SIDE_OF_ROAD": null, "Shape__Area": 46.81938934326172, "DATA_LAST_UPDATED": 1790121600000}}, {"type": "Feature", "id": 3586, "geometry": {"type": "Polygon", "coordinates": [[[-0.142086, 51.479597], [-0.142089, 51.479597], [-0.141841, 51.479658], [-0.141801, 51.479615], [-0.142047, 51.479562], [-0.142086, 51.479597]]]}, "properties": {"OBJECTID": 3586, "STREET_NAME": "BATTERSEA PARK ROAD", "START_LOCATION": "BATTERSEA PARK ROAD", "FINISH_LOCATION": null, "SIDE_OF_ROAD": "north", "Shape__Area": 91.9666748046875, "DATA_LAST_UPDATED": 1790121600000}}, {"type": "Feature", "id": 3400, "geometry": {"type": "Polygon", "coordinates": [[[-0.079891, 51.497687], [-0.079835, 51.497737], [-0.079675, 51.497712], [-0.079733, 51.497661], [-0.079891, 51.497687]]]}, "properties": {"OBJECTID": 3400, "STREET_NAME": "TOWER BRIDGE RD / ABBEY ST", "START_LOCATION": null, "FINISH_LOCATION": null, "SIDE_OF_ROAD": null, "Shape__Area": 73.30349731445312, "DATA_LAST_UPDATED": 1790121600000}}, {"type": "Feature", "id": 3841, "geometry": {"type": "Polygon", "coordinates": [[[-0.129488, 51.430705], [-0.129452, 51.430773], [-0.129396, 51.430762], [-0.129386, 51.43076], [-0.12941, 51.430703], [-0.12942, 51.430701], [-0.129429, 51.430697], [-0.129435, 51.430695], [-0.129488, 51.430705]]]}, "properties": {"OBJECTID": 3841, "STREET_NAME": "STREATHAM HIGH RD / SUNNYHILL RD", "START_LOCATION": null, "FINISH_LOCATION": null, "SIDE_OF_ROAD": null, "Shape__Area": 38.954551696777344, "DATA_LAST_UPDATED": 1790121600000}}, {"type": "Feature", "id": 3818, "geometry": {"type": "Polygon", "coordinates": [[[-0.128114, 51.420021], [-0.128065, 51.420026], [-0.128057, 51.41998], [-0.128097, 51.419972], [-0.128112, 51.42002], [-0.128114, 51.420021]]]}, "properties": {"OBJECTID": 3818, "STREET_NAME": "STREATHAM COMMON SOUTH", "START_LOCATION": "STREATHAM HIGH ROAD", "FINISH_LOCATION": null, "SIDE_OF_ROAD": "west", "Shape__Area": 16.915916442871094, "DATA_LAST_UPDATED": 1790121600000}}, {"type": "Feature", "id": 3555, "geometry": {"type": "MultiPolygon", "coordinates": [[[[-0.072415, 51.486365], [-0.072417, 51.486366], [-0.072415, 51.486366], [-0.072415, 51.486365]]], [[[-0.072469, 51.486253], [-0.072415, 51.486365], [-0.072342, 51.486338], [-0.072382, 51.486221], [-0.072469, 51.486253]]]]}, "properties": {"OBJECTID": 3555, "STREET_NAME": "OLD KENT ROAD", "START_LOCATION": "Mawbey Road Jcn Old Kent Road", "FINISH_LOCATION": null, "SIDE_OF_ROAD": "both", "Shape__Area": 82.06877136230469, "DATA_LAST_UPDATED": 1790121600000}}, {"type": "Feature", "id": 3655, "geometry": {"type": "Polygon", "coordinates": [[[-0.124372, 51.444995], [-0.124302, 51.445253], [-0.124219, 51.445231], [-0.124284, 51.444952], [-0.124372, 51.444995]]]}, "properties": {"OBJECTID": 3655, "STREET_NAME": "BRIXTON HILL / CHRISTCHURCH RD / STREATHAM PLACE / STREATHAM HILL (EAST BOX)", "START_LOCATION": null, "FINISH_LOCATION": null, "SIDE_OF_ROAD": null, "Shape__Area": 193.49352264404297, "DATA_LAST_UPDATED": 1790121600000}}, {"type": "Feature", "id": 3678, "geometry": {"type": "MultiPolygon", "coordinates": [[[[-0.111471, 51.487157], [-0.111473, 51.487158], [-0.111471, 51.487158], [-0.111471, 51.487157]]], [[[-0.111471, 51.487157], [-0.111383, 51.48711], [-0.111386, 51.486973], [-0.111473, 51.487012], [-0.111471, 51.487157]]]]}, "properties": {"OBJECTID": 3678, "STREET_NAME": "KENNINGTON ROAD", "START_LOCATION": "from southern kerb Windmill road", "FINISH_LOCATION": "Northern Kerb Windmill row", "SIDE_OF_ROAD": "west", "Shape__Area": 95.92720794677734, "DATA_LAST_UPDATED": 1790121600000}}, {"type": "Feature", "id": 3515, "geometry": {"type": "Polygon", "coordinates": [[[-0.117136, 51.498938], [-0.117088, 51.499069], [-0.11699, 51.499057], [-0.117039, 51.498923], [-0.117136, 51.498938]]]}, "properties": {"OBJECTID": 3515, "STREET_NAME": "LAMBETH PALACE RD / ST THOMAS HOSPITAL EMERGENCY EXIT", "START_LOCATION": null, "FINISH_LOCATION": null, "SIDE_OF_ROAD": null, "Shape__Area": 104.91837310791016, "DATA_LAST_UPDATED": 1790121600000}}, {"type": "Feature", "id": 3615, "geometry": {"type": "Polygon", "coordinates": [[[-0.116767, 51.459472], [-0.116626, 51.459439], [-0.11668, 51.459345], [-0.116833, 51.459381], [-0.116767, 51.459473], [-0.116767, 51.459472]]]}, "properties": {"OBJECTID": 3615, "STREET_NAME": "BRIXTON HILL", "START_LOCATION": "On South Bound A23, at junction with St Matthews Road", "FINISH_LOCATION": null, "SIDE_OF_ROAD": "east", "Shape__Area": 121.41702270507812, "DATA_LAST_UPDATED": 1790121600000}}, {"type": "Feature", "id": 3475, "geometry": {"type": "Polygon", "coordinates": [[[-0.115926, 51.461106], [-0.115826, 51.461268], [-0.115735, 51.461256], [-0.115824, 51.46109], [-0.115926, 51.461106]]]}, "properties": {"OBJECTID": 3475, "STREET_NAME": "BRIXTON HILL / ACRE LANE / BRIXTON RD / COLD HARBOUR LANE", "START_LOCATION": null, "FINISH_LOCATION": null, "SIDE_OF_ROAD": null, "Shape__Area": 132.94147491455078, "DATA_LAST_UPDATED": 1790121600000}}, {"type": "Feature", "id": 3595, "geometry": {"type": "Polygon", "coordinates": [[[-0.124042, 51.414672], [-0.124042, 51.414673], [-0.124018, 51.41467], [-0.124025, 51.414631], [-0.124051, 51.414635], [-0.124042, 51.414672]]]}, "properties": {"OBJECTID": 3595, "STREET_NAME": "STREATHAM HIGH ROAD", "START_LOCATION": "HERMITAGE LANE", "FINISH_LOCATION": null, "SIDE_OF_ROAD": "both", "Shape__Area": 7.610832214355469, "DATA_LAST_UPDATED": 1790121600000}}, {"type": "Feature", "id": 3732, "geometry": {"type": "Polygon", "coordinates": [[[-0.093208, 51.474006], [-0.093202, 51.474072], [-0.092822, 51.47408], [-0.092818, 51.474017], [-0.093208, 51.474006]]]}, "properties": {"OBJECTID": 3732, "STREET_NAME": "CAMBERWELL NEW RD / CAMBERWELL RD / CAMBERWELL CHURCH ST / DENMARK HILL (SOUTH BOX)", "START_LOCATION": null, "FINISH_LOCATION": null, "SIDE_OF_ROAD": null, "Shape__Area": 191.73934173583984, "DATA_LAST_UPDATED": 1790121600000}}]}